{"type":"FeatureCollection","source":"wam.onwr.go.th/static/geo (สทนช.) · เฉพาะจังหวัดนราธิวาส TH96","features":[{"type":"Feature","properties":{"pcode":"TH960101","name_th":"บางนาค","name_en":"Bang Nak","district_th":"เมืองนราธิวาส","district_en":"Mueang Narathiwat","center_lat":6.42453,"center_lon":101.82772},"geometry":{"type":"Polygon","coordinates":[[[101.83137,6.44634],[101.81468,6.45465],[101.81276,6.40472],[101.81427,6.39453],[101.82594,6.40433],[101.83227,6.40252],[101.83184,6.41702],[101.84096,6.41817],[101.84355,6.42098],[101.83991,6.42563],[101.83103,6.42535],[101.82655,6.42853],[101.82602,6.43264],[101.83137,6.44634]]]}},{"type":"Feature","properties":{"pcode":"TH960102","name_th":"ลำภู","name_en":"Lamphu","district_th":"เมืองนราธิวาส","district_en":"Mueang Narathiwat","center_lat":6.3855,"center_lon":101.80402},"geometry":{"type":"Polygon","coordinates":[[[101.81289,6.40203],[101.8143,6.43711],[101.77593,6.43063],[101.78569,6.40285],[101.77902,6.40072],[101.77796,6.39734],[101.77898,6.39093],[101.78441,6.38344],[101.7845,6.37205],[101.7901,6.36127],[101.7904,6.35156],[101.79849,6.34478],[101.81075,6.34527],[101.84018,6.33385],[101.84055,6.34769],[101.82795,6.36553],[101.82855,6.37304],[101.82472,6.39131],[101.83072,6.40147],[101.82907,6.40448],[101.82594,6.40433],[101.8227,6.39994],[101.81543,6.3974],[101.81443,6.3945],[101.81289,6.40203]]]}},{"type":"Feature","properties":{"pcode":"TH960103","name_th":"มะนังตายอ","name_en":"Manang Tayo","district_th":"เมืองนราธิวาส","district_en":"Mueang Narathiwat","center_lat":6.36212,"center_lon":101.75708},"geometry":{"type":"Polygon","coordinates":[[[101.77856,6.3961],[101.77146,6.39598],[101.77235,6.39198],[101.77058,6.39391],[101.7678,6.39252],[101.76918,6.37984],[101.75783,6.37328],[101.75514,6.37452],[101.75279,6.37251],[101.74769,6.37967],[101.74357,6.38059],[101.74227,6.37745],[101.73982,6.38026],[101.73828,6.37612],[101.74083,6.37355],[101.73592,6.37336],[101.73499,6.36952],[101.73242,6.36861],[101.72978,6.37032],[101.72238,6.36782],[101.72122,6.36495],[101.72461,6.3616],[101.72453,6.35223],[101.72106,6.34739],[101.72971,6.34718],[101.76244,6.32693],[101.77289,6.3351],[101.79094,6.35093],[101.78971,6.36257],[101.7845,6.37205],[101.78441,6.38344],[101.77898,6.39093],[101.77856,6.3961]]]}},{"type":"Feature","properties":{"pcode":"TH960104","name_th":"บางปอ","name_en":"Bang Po","district_th":"เมืองนราธิวาส","district_en":"Mueang Narathiwat","center_lat":6.32494,"center_lon":101.80045},"geometry":{"type":"Polygon","coordinates":[[[101.79967,6.34441],[101.79094,6.35093],[101.76244,6.32693],[101.77109,6.30586],[101.77668,6.30373],[101.79024,6.30851],[101.79636,6.30541],[101.80885,6.30462],[101.81778,6.29897],[101.82543,6.29791],[101.84726,6.30306],[101.83784,6.31647],[101.83741,6.32566],[101.84018,6.33385],[101.81075,6.34527],[101.79967,6.34441]]]}},{"type":"Feature","properties":{"pcode":"TH960105","name_th":"กะลุวอ","name_en":"Kaluwo","district_th":"เมืองนราธิวาส","district_en":"Mueang Narathiwat","center_lat":6.3368,"center_lon":101.87818},"geometry":{"type":"Polygon","coordinates":[[[101.8647,6.39019],[101.84973,6.38761],[101.82762,6.37576],[101.82834,6.36416],[101.84096,6.34623],[101.84104,6.33698],[101.83725,6.32423],[101.83812,6.3157],[101.85236,6.29831],[101.88042,6.29717],[101.89279,6.30128],[101.91635,6.28318],[101.91559,6.33662],[101.90359,6.34525],[101.89995,6.35321],[101.88115,6.37777],[101.8647,6.39019]]]}},{"type":"Feature","properties":{"pcode":"TH960106","name_th":"กะลุวอเหนือ","name_en":"Kaluwo Nuea","district_th":"เมืองนราธิวาส","district_en":"Mueang Narathiwat","center_lat":6.39965,"center_lon":101.86239},"geometry":{"type":"Polygon","coordinates":[[[101.85672,6.42735],[101.8454,6.43371],[101.83137,6.44634],[101.82602,6.43264],[101.82655,6.42853],[101.83103,6.42535],[101.83991,6.42563],[101.84363,6.42132],[101.841,6.41818],[101.8346,6.41859],[101.83154,6.41635],[101.83293,6.40387],[101.82472,6.39131],[101.82762,6.37576],[101.84973,6.38761],[101.86413,6.3906],[101.88115,6.37777],[101.89995,6.35321],[101.89765,6.36211],[101.89958,6.36654],[101.90974,6.36775],[101.9188,6.37285],[101.87489,6.42432],[101.8676,6.42775],[101.85672,6.42735]]]}},{"type":"Feature","properties":{"pcode":"TH960107","name_th":"โคกเคียน","name_en":"Khok Khian","district_th":"เมืองนราธิวาส","district_en":"Mueang Narathiwat","center_lat":6.50409,"center_lon":101.74723},"geometry":{"type":"Polygon","coordinates":[[[101.81468,6.45465],[101.76688,6.51453],[101.72484,6.57686],[101.70931,6.5689],[101.72284,6.54505],[101.71864,6.54015],[101.72715,6.51276],[101.72259,6.51011],[101.71569,6.49718],[101.7403,6.46255],[101.76719,6.44245],[101.77593,6.43063],[101.8143,6.43711],[101.81468,6.45465]]]}},{"type":"Feature","properties":{"pcode":"TH960201","name_th":"เจ๊ะเห","name_en":"Che He","district_th":"ตากใบ","district_en":"Tak Bai","center_lat":6.25617,"center_lon":102.04302},"geometry":{"type":"Polygon","coordinates":[[[102.08905,6.24487],[102.03159,6.28278],[102.0221,6.27377],[102.01565,6.25482],[102.02131,6.24954],[102.02699,6.24922],[102.02985,6.25191],[102.03159,6.2491],[102.04107,6.24614],[102.04503,6.24023],[102.05684,6.24431],[102.06186,6.23564],[102.07035,6.23724],[102.07527,6.22996],[102.08393,6.22956],[102.09162,6.2353],[102.08905,6.24487]]]}},{"type":"Feature","properties":{"pcode":"TH960202","name_th":"ไพรวัน","name_en":"Phrai Wan","district_th":"ตากใบ","district_en":"Tak Bai","center_lat":6.31488,"center_lon":101.94811},"geometry":{"type":"Polygon","coordinates":[[[101.94242,6.34704],[101.9188,6.37285],[101.90974,6.36775],[101.89958,6.36654],[101.89765,6.36211],[101.90359,6.34525],[101.91559,6.33662],[101.91635,6.28318],[101.91956,6.26784],[101.94541,6.25778],[101.9498,6.2637],[101.9498,6.26744],[101.95382,6.26455],[101.95678,6.26691],[101.96478,6.2625],[101.9691,6.26944],[101.97388,6.26657],[101.96959,6.2656],[101.97226,6.26006],[101.97903,6.26337],[101.9781,6.26695],[101.97993,6.26763],[101.98234,6.26452],[101.98678,6.2675],[101.98895,6.26452],[101.98719,6.2609],[101.99982,6.26219],[101.99605,6.26597],[102.00043,6.26898],[101.99893,6.27097],[102.00131,6.28211],[101.98601,6.28695],[101.97733,6.29552],[101.97723,6.3062],[101.98056,6.31652],[101.94242,6.34704]]]}},{"type":"Feature","properties":{"pcode":"TH960203","name_th":"พร่อน","name_en":"Phron","district_th":"ตากใบ","district_en":"Tak Bai","center_lat":6.21687,"center_lon":102.01899},"geometry":{"type":"Polygon","coordinates":[[[102.01724,6.25473],[102.00897,6.25695],[102.00594,6.25255],[102.0085,6.24729],[102.00564,6.23901],[102.00644,6.22743],[101.99603,6.22162],[101.99265,6.2139],[101.97253,6.18859],[101.98735,6.17691],[102.0013,6.18326],[102.01866,6.18334],[102.02621,6.18757],[102.0304,6.19532],[102.04119,6.20499],[102.04422,6.21208],[102.04111,6.22122],[102.04312,6.22773],[102.03845,6.23238],[102.03824,6.24673],[102.02972,6.25195],[102.02699,6.24922],[102.02123,6.24957],[102.01724,6.25473]]]}},{"type":"Feature","properties":{"pcode":"TH960204","name_th":"ศาลาใหม่","name_en":"Sala Mai","district_th":"ตากใบ","district_en":"Tak Bai","center_lat":6.28559,"center_lon":102.00848},"geometry":{"type":"Polygon","coordinates":[[[102.00858,6.29591],[101.98056,6.31652],[101.97723,6.3062],[101.97733,6.29552],[101.98601,6.28695],[102.00095,6.28263],[101.99893,6.27097],[102.00043,6.26898],[101.99614,6.26534],[102.00014,6.26247],[102.00415,6.26341],[102.00811,6.25733],[102.01565,6.25482],[102.0221,6.27377],[102.03159,6.28278],[102.01202,6.29594],[102.00858,6.29591]]]}},{"type":"Feature","properties":{"pcode":"TH960205","name_th":"บางขุนทอง","name_en":"Bang Khun Thong","district_th":"ตากใบ","district_en":"Tak Bai","center_lat":6.22952,"center_lon":101.9637},"geometry":{"type":"Polygon","coordinates":[[[101.97392,6.26627],[101.96886,6.26938],[101.9647,6.2625],[101.95671,6.26693],[101.95354,6.26461],[101.95006,6.26754],[101.94541,6.25778],[101.92437,6.26527],[101.93137,6.26022],[101.93307,6.25463],[101.92645,6.25087],[101.93032,6.24416],[101.92843,6.24268],[101.9289,6.23712],[101.91799,6.23141],[101.97253,6.18859],[101.99265,6.2139],[101.99603,6.22162],[102.00644,6.22743],[102.00564,6.23901],[102.0085,6.24729],[102.00594,6.25255],[102.00897,6.25695],[102.00384,6.26351],[101.987,6.26098],[101.98895,6.26452],[101.98647,6.26762],[101.98243,6.26452],[101.97837,6.26741],[101.97908,6.26343],[101.97217,6.26009],[101.96961,6.26567],[101.97392,6.26627]]]}},{"type":"Feature","properties":{"pcode":"TH960206","name_th":"เกาะสะท้อน","name_en":"Ko Sathon","district_th":"ตากใบ","district_en":"Tak Bai","center_lat":6.21941,"center_lon":102.06138},"geometry":{"type":"Polygon","coordinates":[[[102.03824,6.24673],[102.03845,6.23238],[102.04307,6.2279],[102.04111,6.22122],[102.04443,6.21387],[102.04157,6.20648],[102.04857,6.20139],[102.05828,6.19885],[102.06288,6.20003],[102.06388,6.19436],[102.06876,6.1981],[102.07075,6.19177],[102.07994,6.20182],[102.08032,6.22514],[102.08393,6.22956],[102.07449,6.23024],[102.07021,6.23729],[102.06215,6.23546],[102.05684,6.24431],[102.0455,6.24017],[102.03824,6.24673]]]}},{"type":"Feature","properties":{"pcode":"TH960207","name_th":"นานาค","name_en":"Na Nak","district_th":"ตากใบ","district_en":"Tak Bai","center_lat":6.13898,"center_lon":102.06938},"geometry":{"type":"Polygon","coordinates":[[[102.08254,6.17119],[102.07664,6.17298],[102.06932,6.16898],[102.06938,6.16378],[102.0582,6.15673],[102.05278,6.15897],[102.05192,6.15537],[102.0544,6.1543],[102.04978,6.15057],[102.05074,6.13865],[102.04673,6.13508],[102.04604,6.13017],[102.05177,6.1276],[102.06406,6.10489],[102.06766,6.10994],[102.07052,6.10891],[102.07179,6.11504],[102.07437,6.11598],[102.07291,6.11822],[102.07539,6.11749],[102.07435,6.12007],[102.07931,6.12278],[102.07738,6.12349],[102.07947,6.12555],[102.07747,6.12778],[102.08217,6.12921],[102.08286,6.13664],[102.08908,6.13819],[102.08729,6.14081],[102.09288,6.14582],[102.08942,6.15842],[102.0846,6.15831],[102.08572,6.1652],[102.08254,6.17119]]]}},{"type":"Feature","properties":{"pcode":"TH960208","name_th":"โฆษิต","name_en":"Khosit","district_th":"ตากใบ","district_en":"Tak Bai","center_lat":6.17489,"center_lon":102.03453},"geometry":{"type":"Polygon","coordinates":[[[102.05808,6.19889],[102.03995,6.20482],[102.0304,6.19532],[102.02621,6.18757],[102.01869,6.18335],[102.0013,6.18326],[101.98735,6.17691],[102.02271,6.15106],[102.04976,6.14446],[102.04979,6.15061],[102.05442,6.15439],[102.05192,6.15537],[102.05273,6.15892],[102.05751,6.15659],[102.06401,6.16196],[102.06533,6.16056],[102.06943,6.16388],[102.06932,6.16898],[102.07846,6.17286],[102.08066,6.18089],[102.07758,6.19816],[102.07023,6.19171],[102.06876,6.1981],[102.06396,6.19433],[102.06288,6.20003],[102.05808,6.19889]]]}},{"type":"Feature","properties":{"pcode":"TH960301","name_th":"บาเจาะ","name_en":"Bacho","district_th":"บาเจาะ","district_en":"Bacho","center_lat":6.51498,"center_lon":101.63863},"geometry":{"type":"Polygon","coordinates":[[[101.66946,6.53675],[101.65504,6.53533],[101.65248,6.5296],[101.62525,6.52934],[101.60164,6.5246],[101.59351,6.52568],[101.59061,6.52206],[101.59218,6.51885],[101.59076,6.51208],[101.59842,6.50815],[101.60782,6.49606],[101.61377,6.49239],[101.61878,6.4957],[101.62471,6.4926],[101.62954,6.49344],[101.63692,6.50231],[101.646,6.49805],[101.65153,6.50092],[101.67376,6.50023],[101.68444,6.50506],[101.68713,6.51319],[101.68414,6.51826],[101.68752,6.52316],[101.66946,6.53675]]]}},{"type":"Feature","properties":{"pcode":"TH960302","name_th":"ลุโบะสาวอ","name_en":"Lubo Sawo","district_th":"บาเจาะ","district_en":"Bacho","center_lat":6.49384,"center_lon":101.66903},"geometry":{"type":"Polygon","coordinates":[[[101.70174,6.51613],[101.69182,6.51429],[101.68688,6.51112],[101.684,6.50451],[101.67376,6.50023],[101.65153,6.50092],[101.646,6.49805],[101.63692,6.50231],[101.62954,6.49344],[101.62471,6.4926],[101.61878,6.4957],[101.61377,6.49239],[101.60782,6.49606],[101.60709,6.49267],[101.626,6.48178],[101.63634,6.47204],[101.66959,6.47289],[101.68893,6.48088],[101.7059,6.49218],[101.72715,6.51276],[101.7135,6.51041],[101.70174,6.51613]]]}},{"type":"Feature","properties":{"pcode":"TH960303","name_th":"กาเยาะมาตี","name_en":"Kayo Mati","district_th":"บาเจาะ","district_en":"Bacho","center_lat":6.54883,"center_lon":101.6394},"geometry":{"type":"Polygon","coordinates":[[[101.67515,6.57305],[101.67052,6.56895],[101.65614,6.56463],[101.64693,6.56902],[101.64096,6.56915],[101.63262,6.55962],[101.62967,6.54999],[101.59759,6.55385],[101.60898,6.54371],[101.59351,6.52568],[101.60164,6.5246],[101.62525,6.52934],[101.65248,6.5296],[101.65502,6.53532],[101.66813,6.53743],[101.6786,6.53024],[101.67515,6.57305]]]}},{"type":"Feature","properties":{"pcode":"TH960304","name_th":"ปะลุกาสาเมาะ","name_en":"Paluka Samo","district_th":"บาเจาะ","district_en":"Bacho","center_lat":6.60822,"center_lon":101.61307},"geometry":{"type":"Polygon","coordinates":[[[101.63361,6.62194],[101.63112,6.63535],[101.63046,6.62747],[101.62684,6.62452],[101.62283,6.62684],[101.62705,6.63055],[101.62424,6.63339],[101.61998,6.62931],[101.61496,6.62948],[101.61342,6.63311],[101.60557,6.63163],[101.59943,6.6236],[101.58527,6.62606],[101.57639,6.61835],[101.5744,6.59834],[101.57915,6.59264],[101.58922,6.58922],[101.5963,6.58127],[101.62029,6.58171],[101.62696,6.59144],[101.6401,6.59885],[101.65202,6.60234],[101.64623,6.61862],[101.64247,6.62038],[101.63827,6.6185],[101.63361,6.62194]]]}},{"type":"Feature","properties":{"pcode":"TH960305","name_th":"บาเระเหนือ","name_en":"Bare Nuea","district_th":"บาเจาะ","district_en":"Bacho","center_lat":6.57628,"center_lon":101.63111},"geometry":{"type":"Polygon","coordinates":[[[101.66889,6.57398],[101.66517,6.58517],[101.65972,6.58783],[101.66134,6.59308],[101.65513,6.59671],[101.65202,6.60234],[101.64928,6.60224],[101.62696,6.59144],[101.62029,6.58171],[101.5963,6.58127],[101.59453,6.56779],[101.59243,6.5656],[101.59709,6.56106],[101.59759,6.55385],[101.62967,6.54999],[101.63262,6.55962],[101.64096,6.56915],[101.64693,6.56902],[101.65614,6.56463],[101.6736,6.57113],[101.67515,6.57305],[101.66889,6.57398]]]}},{"type":"Feature","properties":{"pcode":"TH960306","name_th":"บาเระใต้","name_en":"Bare Tai","district_th":"บาเจาะ","district_en":"Bacho","center_lat":6.54102,"center_lon":101.69821},"geometry":{"type":"Polygon","coordinates":[[[101.68786,6.57281],[101.67515,6.57305],[101.6786,6.53024],[101.68752,6.52316],[101.68414,6.51825],[101.68688,6.51112],[101.69739,6.51615],[101.71354,6.5104],[101.72715,6.51276],[101.71864,6.54015],[101.72284,6.54505],[101.71135,6.56748],[101.68786,6.57281]]]}},{"type":"Feature","properties":{"pcode":"TH960401","name_th":"ยี่งอ","name_en":"Yi-Ngo","district_th":"ยี่งอ","district_en":"Yi-Ngo","center_lat":6.37906,"center_lon":101.70277},"geometry":{"type":"Polygon","coordinates":[[[101.71981,6.40905],[101.69371,6.41072],[101.68564,6.40681],[101.68921,6.39253],[101.68483,6.37339],[101.68621,6.3558],[101.69663,6.35661],[101.72106,6.34739],[101.72414,6.3508],[101.72476,6.36078],[101.72125,6.36479],[101.72151,6.37232],[101.71711,6.38525],[101.71981,6.40905]]]}},{"type":"Feature","properties":{"pcode":"TH960402","name_th":"ละหาร","name_en":"Lahan","district_th":"ยี่งอ","district_en":"Yi-Ngo","center_lat":6.38935,"center_lon":101.74238},"geometry":{"type":"Polygon","coordinates":[[[101.7834,6.40862],[101.77085,6.41234],[101.7519,6.40551],[101.74084,6.40979],[101.71981,6.40905],[101.71711,6.38525],[101.72183,6.36669],[101.72978,6.37032],[101.73476,6.3694],[101.73592,6.37336],[101.74083,6.37355],[101.73828,6.37612],[101.73982,6.38026],[101.74227,6.37745],[101.74357,6.38059],[101.74769,6.37967],[101.75279,6.37251],[101.76918,6.37984],[101.7678,6.39252],[101.77058,6.39391],[101.77235,6.39198],[101.77119,6.39582],[101.77778,6.39609],[101.77902,6.40072],[101.78569,6.40283],[101.7834,6.40862]]]}},{"type":"Feature","properties":{"pcode":"TH960403","name_th":"จอเบาะ","name_en":"Cho Bo","district_th":"ยี่งอ","district_en":"Yi-Ngo","center_lat":6.38136,"center_lon":101.65612},"geometry":{"type":"Polygon","coordinates":[[[101.66007,6.39861],[101.65278,6.40085],[101.6444,6.41053],[101.64295,6.40831],[101.63179,6.40572],[101.62332,6.40034],[101.62851,6.39029],[101.62528,6.384],[101.62629,6.37995],[101.65394,6.35332],[101.67695,6.35831],[101.68621,6.3558],[101.68483,6.37339],[101.68921,6.39253],[101.68525,6.40426],[101.67339,6.40371],[101.66007,6.39861]]]}},{"type":"Feature","properties":{"pcode":"TH960404","name_th":"ลุโบะบายะ","name_en":"Lubo Baya","district_th":"ยี่งอ","district_en":"Yi-Ngo","center_lat":6.41996,"center_lon":101.66649},"geometry":{"type":"Polygon","coordinates":[[[101.69522,6.4108],[101.69098,6.41707],[101.68181,6.42321],[101.68085,6.44145],[101.65982,6.43283],[101.64739,6.43163],[101.64702,6.42099],[101.64353,6.41054],[101.65424,6.39996],[101.66264,6.39859],[101.67339,6.40371],[101.68525,6.40426],[101.68787,6.4094],[101.69522,6.4108]]]}},{"type":"Feature","properties":{"pcode":"TH960405","name_th":"ลุโบะบือซา","name_en":"Lubo Buesa","district_th":"ยี่งอ","district_en":"Yi-Ngo","center_lat":6.43974,"center_lon":101.72589},"geometry":{"type":"Polygon","coordinates":[[[101.78348,6.40857],[101.77165,6.43835],[101.74292,6.45996],[101.73167,6.474],[101.70124,6.45174],[101.68085,6.44145],[101.68181,6.42321],[101.69098,6.41707],[101.69522,6.4108],[101.70683,6.40868],[101.74084,6.40979],[101.7519,6.40551],[101.77089,6.41235],[101.77988,6.40794],[101.78348,6.40857]]]}},{"type":"Feature","properties":{"pcode":"TH960406","name_th":"ตะปอเยาะ","name_en":"Tapo Yo","district_th":"ยี่งอ","district_en":"Yi-Ngo","center_lat":6.46602,"center_lon":101.6787},"geometry":{"type":"Polygon","coordinates":[[[101.73167,6.474],[101.71569,6.49718],[101.71593,6.49995],[101.68893,6.48088],[101.67123,6.47341],[101.63634,6.47204],[101.63687,6.46697],[101.6332,6.4609],[101.638,6.43945],[101.64739,6.43163],[101.66064,6.43309],[101.70053,6.45129],[101.73167,6.474]]]}},{"type":"Feature","properties":{"pcode":"TH960501","name_th":"ตันหยงมัส","name_en":"Tanyong Mat","district_th":"ระแงะ","district_en":"Ra-Ngae","center_lat":6.30779,"center_lon":101.73155},"geometry":{"type":"Polygon","coordinates":[[[101.72106,6.34739],[101.69965,6.35479],[101.69774,6.34334],[101.70265,6.31398],[101.70765,6.31127],[101.70734,6.30682],[101.70325,6.30259],[101.70513,6.29653],[101.70304,6.29284],[101.70423,6.28424],[101.71173,6.27626],[101.71762,6.26072],[101.73905,6.26213],[101.73908,6.26889],[101.73557,6.27123],[101.73719,6.27948],[101.73999,6.2799],[101.73986,6.28485],[101.73602,6.28718],[101.73939,6.2885],[101.74442,6.29818],[101.74773,6.29855],[101.74849,6.30236],[101.75187,6.30325],[101.76628,6.31928],[101.75799,6.33144],[101.75139,6.33327],[101.72971,6.34718],[101.72106,6.34739]]]}},{"type":"Feature","properties":{"pcode":"TH960502","name_th":"ตันหยงลิมอ","name_en":"Tanyong Limo","district_th":"ระแงะ","district_en":"Ra-Ngae","center_lat":6.2844,"center_lon":101.7752},"geometry":{"type":"Polygon","coordinates":[[[101.77392,6.304],[101.76971,6.30751],[101.76628,6.31928],[101.75187,6.30325],[101.74849,6.30236],[101.74773,6.29855],[101.74442,6.29818],[101.73939,6.2885],[101.73588,6.28659],[101.73986,6.28485],[101.73999,6.2799],[101.73719,6.27948],[101.73557,6.27123],[101.73908,6.26889],[101.73905,6.26213],[101.74499,6.26266],[101.74707,6.25872],[101.76969,6.24942],[101.77787,6.2499],[101.78606,6.25567],[101.82212,6.2985],[101.80885,6.30462],[101.79636,6.30541],[101.79024,6.30851],[101.77392,6.304]]]}},{"type":"Feature","properties":{"pcode":"TH960506","name_th":"บองอ","name_en":"Bo-Ngo","district_th":"ระแงะ","district_en":"Ra-Ngae","center_lat":6.1889,"center_lon":101.74552},"geometry":{"type":"Polygon","coordinates":[[[101.74582,6.26134],[101.71968,6.26129],[101.70158,6.25536],[101.69349,6.2166],[101.69139,6.21362],[101.6875,6.21381],[101.67195,6.18865],[101.68558,6.18451],[101.6956,6.19035],[101.71214,6.1878],[101.71374,6.18493],[101.71119,6.17323],[101.71345,6.17236],[101.71374,6.16583],[101.71891,6.16075],[101.72303,6.1612],[101.7261,6.15698],[101.72538,6.1534],[101.73102,6.14964],[101.72978,6.14578],[101.73322,6.14246],[101.7331,6.13945],[101.7419,6.13446],[101.74764,6.11887],[101.75343,6.1155],[101.76024,6.11807],[101.75949,6.12311],[101.77273,6.12327],[101.78055,6.13291],[101.78556,6.12838],[101.79354,6.13277],[101.80186,6.12972],[101.80053,6.13561],[101.80336,6.14928],[101.79734,6.15382],[101.79116,6.16631],[101.78888,6.17762],[101.79082,6.18358],[101.78162,6.19852],[101.78277,6.21025],[101.77149,6.22021],[101.76779,6.22948],[101.76061,6.23279],[101.77787,6.2499],[101.76863,6.24968],[101.74707,6.25872],[101.74582,6.26134]]]}},{"type":"Feature","properties":{"pcode":"TH960507","name_th":"กาลิซา","name_en":"Kalisa","district_th":"ระแงะ","district_en":"Ra-Ngae","center_lat":6.22562,"center_lon":101.6557},"geometry":{"type":"Polygon","coordinates":[[[101.6379,6.26928],[101.6196,6.27613],[101.60618,6.27831],[101.61281,6.26419],[101.60948,6.2525],[101.61963,6.23933],[101.61577,6.23285],[101.61555,6.22314],[101.61216,6.22103],[101.62071,6.20955],[101.62478,6.20968],[101.62645,6.20532],[101.63328,6.19985],[101.62968,6.19253],[101.63192,6.18829],[101.6289,6.18755],[101.62719,6.18311],[101.63146,6.17473],[101.63477,6.17311],[101.64361,6.17702],[101.65594,6.18756],[101.6671,6.186],[101.67195,6.18865],[101.6875,6.21381],[101.69139,6.21362],[101.69349,6.2166],[101.70133,6.25247],[101.70116,6.25464],[101.69096,6.25542],[101.68341,6.26648],[101.6379,6.26928]]]}},{"type":"Feature","properties":{"pcode":"TH960508","name_th":"บาโงสะโต","name_en":"Ba-Ngo Sato","district_th":"ระแงะ","district_en":"Ra-Ngae","center_lat":6.28383,"center_lon":101.68862},"geometry":{"type":"Polygon","coordinates":[[[101.70616,6.31329],[101.69109,6.30897],[101.67662,6.30785],[101.66237,6.2899],[101.67274,6.28422],[101.6695,6.2676],[101.68341,6.26648],[101.69174,6.25509],[101.70116,6.25464],[101.71762,6.26072],[101.71173,6.27626],[101.70423,6.28424],[101.70304,6.29284],[101.70513,6.29653],[101.70325,6.30259],[101.70765,6.30772],[101.70616,6.31329]]]}},{"type":"Feature","properties":{"pcode":"TH960509","name_th":"เฉลิม","name_en":"Chaloem","district_th":"ระแงะ","district_en":"Ra-Ngae","center_lat":6.31281,"center_lon":101.65104},"geometry":{"type":"Polygon","coordinates":[[[101.68621,6.3558],[101.67695,6.35831],[101.67206,6.33637],[101.66777,6.32936],[101.6223,6.31428],[101.61286,6.31429],[101.6015,6.31893],[101.59979,6.31509],[101.60197,6.30968],[101.59354,6.3035],[101.5964,6.29649],[101.59354,6.29276],[101.60552,6.28613],[101.60618,6.27831],[101.6196,6.27613],[101.6362,6.26949],[101.6695,6.2676],[101.67274,6.28422],[101.66237,6.2899],[101.67025,6.30216],[101.67741,6.30821],[101.69109,6.30897],[101.70281,6.31332],[101.69774,6.34334],[101.69965,6.35479],[101.69364,6.35713],[101.68621,6.3558]]]}},{"type":"Feature","properties":{"pcode":"TH960510","name_th":"มะรือโบตก","name_en":"Marue Bo Tok","district_th":"ระแงะ","district_en":"Ra-Ngae","center_lat":6.34258,"center_lon":101.64316},"geometry":{"type":"Polygon","coordinates":[[[101.63394,6.36901],[101.62757,6.37119],[101.62267,6.36466],[101.61415,6.36601],[101.60554,6.35854],[101.6064,6.35432],[101.6106,6.35309],[101.61389,6.34058],[101.6089,6.33309],[101.60415,6.33237],[101.60103,6.32145],[101.60545,6.31638],[101.62314,6.31443],[101.65281,6.32296],[101.67034,6.33151],[101.67695,6.35831],[101.65558,6.35291],[101.63394,6.36901]]]}},{"type":"Feature","properties":{"pcode":"TH960601","name_th":"รือเสาะ","name_en":"Rueso","district_th":"รือเสาะ","district_en":"Rueso","center_lat":6.36024,"center_lon":101.51764},"geometry":{"type":"Polygon","coordinates":[[[101.51254,6.39866],[101.51199,6.40971],[101.49839,6.39842],[101.4844,6.39802],[101.47462,6.3945],[101.46842,6.3811],[101.4754,6.37634],[101.48382,6.35316],[101.48629,6.35139],[101.49157,6.35332],[101.49504,6.35038],[101.48967,6.34428],[101.48961,6.34015],[101.50506,6.32662],[101.50688,6.32167],[101.51361,6.31697],[101.51346,6.31413],[101.51893,6.31101],[101.52102,6.31377],[101.52969,6.31544],[101.53241,6.31384],[101.53342,6.31938],[101.54309,6.32505],[101.53703,6.34114],[101.54077,6.34831],[101.55081,6.35434],[101.5549,6.36235],[101.55599,6.37152],[101.54264,6.36759],[101.53347,6.36965],[101.51254,6.39866]]]}},{"type":"Feature","properties":{"pcode":"TH960602","name_th":"สาวอ","name_en":"Sawo","district_th":"รือเสาะ","district_en":"Rueso","center_lat":6.42859,"center_lon":101.50831},"geometry":{"type":"Polygon","coordinates":[[[101.49391,6.4568],[101.48671,6.4629],[101.46301,6.4658],[101.46531,6.46212],[101.46263,6.45595],[101.46605,6.45012],[101.4645,6.44265],[101.4688,6.43032],[101.47798,6.42067],[101.47332,6.4076],[101.46639,6.40308],[101.47152,6.39121],[101.47912,6.3969],[101.49839,6.39842],[101.51033,6.40908],[101.52174,6.40918],[101.52672,6.4112],[101.53341,6.41937],[101.5386,6.42155],[101.54513,6.41938],[101.54799,6.4233],[101.54469,6.4328],[101.53738,6.44335],[101.49391,6.4568]]]}},{"type":"Feature","properties":{"pcode":"TH960603","name_th":"เรียง","name_en":"Riang","district_th":"รือเสาะ","district_en":"Rueso","center_lat":6.38572,"center_lon":101.4451},"geometry":{"type":"Polygon","coordinates":[[[101.46387,6.42365],[101.4564,6.43178],[101.44282,6.42823],[101.43493,6.42924],[101.42367,6.42112],[101.42234,6.41721],[101.42511,6.4143],[101.42193,6.40688],[101.41863,6.40129],[101.41171,6.3966],[101.41941,6.39089],[101.41701,6.37269],[101.3986,6.35954],[101.39677,6.34827],[101.38907,6.34041],[101.41029,6.34215],[101.42501,6.3642],[101.43702,6.363],[101.44306,6.36498],[101.45027,6.37094],[101.45648,6.37137],[101.46304,6.38038],[101.46856,6.38187],[101.4716,6.3907],[101.46657,6.39905],[101.46655,6.40376],[101.47333,6.40761],[101.47785,6.42156],[101.46981,6.42892],[101.46785,6.42437],[101.46387,6.42365]]]}},{"type":"Feature","properties":{"pcode":"TH960604","name_th":"สามัคคี","name_en":"Samakkhi","district_th":"รือเสาะ","district_en":"Rueso","center_lat":6.42475,"center_lon":101.59765},"geometry":{"type":"Polygon","coordinates":[[[101.64739,6.43163],[101.63683,6.42852],[101.63311,6.43062],[101.62774,6.42934],[101.59925,6.44104],[101.58254,6.44471],[101.56832,6.44247],[101.54979,6.44902],[101.54724,6.44388],[101.54261,6.44545],[101.53928,6.44216],[101.54803,6.42503],[101.5467,6.42108],[101.54267,6.419],[101.55474,6.40988],[101.57388,6.40518],[101.58025,6.40739],[101.59994,6.4079],[101.62332,6.40034],[101.63179,6.40572],[101.64295,6.40831],[101.64702,6.42099],[101.64739,6.43163]]]}},{"type":"Feature","properties":{"pcode":"TH960605","name_th":"บาตง","name_en":"Batong","district_th":"รือเสาะ","district_en":"Rueso","center_lat":6.34022,"center_lon":101.44004},"geometry":{"type":"Polygon","coordinates":[[[101.47705,6.37268],[101.46856,6.38187],[101.46456,6.38128],[101.45648,6.37137],[101.45027,6.37094],[101.44306,6.36498],[101.43702,6.363],[101.42501,6.3642],[101.41108,6.34257],[101.38907,6.34041],[101.38876,6.32829],[101.3987,6.31953],[101.4,6.31583],[101.3994,6.30925],[101.39399,6.29864],[101.43261,6.3078],[101.43688,6.30351],[101.44542,6.30393],[101.44735,6.30842],[101.45476,6.3131],[101.47144,6.30555],[101.49236,6.30708],[101.50353,6.30545],[101.50005,6.31265],[101.49416,6.31385],[101.4925,6.31756],[101.50505,6.32362],[101.5054,6.32606],[101.48932,6.34059],[101.49069,6.34607],[101.49527,6.34983],[101.49182,6.35326],[101.48629,6.35139],[101.48352,6.35352],[101.47705,6.37268]]]}},{"type":"Feature","properties":{"pcode":"TH960606","name_th":"ลาโละ","name_en":"La Lo","district_th":"รือเสาะ","district_en":"Rueso","center_lat":6.35655,"center_lon":101.57848},"geometry":{"type":"Polygon","coordinates":[[[101.63592,6.36896],[101.62541,6.38195],[101.62851,6.39029],[101.62332,6.40034],[101.60638,6.39234],[101.6023,6.38703],[101.59155,6.38418],[101.57672,6.3719],[101.5549,6.36235],[101.55024,6.35369],[101.54545,6.35209],[101.53839,6.34474],[101.53689,6.34034],[101.53963,6.33693],[101.53907,6.33167],[101.54344,6.32462],[101.54792,6.32732],[101.56296,6.31569],[101.56803,6.31434],[101.58327,6.31294],[101.60099,6.31784],[101.60415,6.33237],[101.6089,6.33309],[101.61384,6.33929],[101.6106,6.35309],[101.6064,6.35432],[101.60554,6.35854],[101.61415,6.36601],[101.62267,6.36466],[101.62757,6.37119],[101.63592,6.36896]]]}},{"type":"Feature","properties":{"pcode":"TH960607","name_th":"รือเสาะออก","name_en":"Rueso Ok","district_th":"รือเสาะ","district_en":"Rueso","center_lat":6.39205,"center_lon":101.56133},"geometry":{"type":"Polygon","coordinates":[[[101.55474,6.40988],[101.5386,6.42155],[101.53341,6.41937],[101.52672,6.4112],[101.52174,6.40918],[101.51199,6.40971],[101.5127,6.39782],[101.53347,6.36965],[101.54264,6.36759],[101.55556,6.37221],[101.5541,6.36248],[101.57672,6.3719],[101.59155,6.38418],[101.6023,6.38703],[101.60638,6.39234],[101.62332,6.40034],[101.59994,6.4079],[101.57133,6.40554],[101.55474,6.40988]]]}},{"type":"Feature","properties":{"pcode":"TH960608","name_th":"โคกสะตอ","name_en":"Khok Sato","district_th":"รือเสาะ","district_en":"Rueso","center_lat":6.27225,"center_lon":101.44515},"geometry":{"type":"Polygon","coordinates":[[[101.45552,6.31241],[101.4474,6.30847],[101.44542,6.30393],[101.43688,6.30351],[101.43261,6.3078],[101.39399,6.29864],[101.39499,6.28609],[101.39918,6.28276],[101.40266,6.27298],[101.40016,6.26668],[101.40079,6.25804],[101.3968,6.25364],[101.39504,6.24578],[101.40337,6.23974],[101.39844,6.23143],[101.41064,6.23487],[101.41995,6.24257],[101.4283,6.23303],[101.43449,6.23454],[101.43999,6.2312],[101.44379,6.24047],[101.4511,6.24596],[101.45202,6.25303],[101.45757,6.26007],[101.48139,6.25222],[101.49001,6.25439],[101.48637,6.26064],[101.48638,6.26983],[101.49175,6.27809],[101.49511,6.27888],[101.49591,6.28909],[101.50049,6.29625],[101.50599,6.29859],[101.50544,6.30364],[101.49236,6.30708],[101.47144,6.30555],[101.45552,6.31241]]]}},{"type":"Feature","properties":{"pcode":"TH960609","name_th":"สุวารี","name_en":"Suwari","district_th":"รือเสาะ","district_en":"Rueso","center_lat":6.47072,"center_lon":101.58674},"geometry":{"type":"Polygon","coordinates":[[[101.59076,6.51208],[101.58199,6.51194],[101.57371,6.49866],[101.56864,6.49848],[101.56343,6.49487],[101.56152,6.48768],[101.55229,6.48176],[101.54707,6.48336],[101.5427,6.48045],[101.53578,6.46843],[101.52351,6.46568],[101.50762,6.45129],[101.53928,6.44216],[101.54261,6.44545],[101.54724,6.44388],[101.54979,6.44902],[101.56832,6.44247],[101.58595,6.44429],[101.60252,6.43999],[101.62774,6.42934],[101.63311,6.43062],[101.63683,6.42852],[101.64739,6.43163],[101.6404,6.43595],[101.63758,6.44089],[101.6332,6.4609],[101.63687,6.46697],[101.63567,6.47411],[101.60813,6.49146],[101.6078,6.49823],[101.60488,6.50219],[101.59076,6.51208]]]}},{"type":"Feature","properties":{"pcode":"TH960701","name_th":"ซากอ","name_en":"Sa Ko","district_th":"ศรีสาคร","district_en":"Si Sakhon","center_lat":6.22309,"center_lon":101.55787},"geometry":{"type":"Polygon","coordinates":[[[101.52453,6.26117],[101.50283,6.25997],[101.49018,6.25482],[101.49514,6.24748],[101.49095,6.23256],[101.50071,6.22628],[101.50025,6.22301],[101.50594,6.21473],[101.5046,6.20771],[101.51079,6.19605],[101.52196,6.20363],[101.52957,6.20385],[101.54452,6.19674],[101.55543,6.19547],[101.56155,6.19087],[101.56582,6.18381],[101.56656,6.18981],[101.58192,6.20252],[101.5857,6.21016],[101.61555,6.22314],[101.61587,6.22972],[101.6065,6.23122],[101.59926,6.23619],[101.5947,6.23348],[101.59048,6.23434],[101.58698,6.23849],[101.57506,6.24329],[101.57156,6.25047],[101.55925,6.25484],[101.5579,6.25229],[101.55137,6.25026],[101.53403,6.25074],[101.53083,6.25536],[101.52528,6.25665],[101.52305,6.25944],[101.52453,6.26117]]]}},{"type":"Feature","properties":{"pcode":"TH960702","name_th":"ตะมะยูง","name_en":"Tama Yung","district_th":"ศรีสาคร","district_en":"Si Sakhon","center_lat":6.28694,"center_lon":101.51477},"geometry":{"type":"Polygon","coordinates":[[[101.5069,6.32338],[101.49917,6.32234],[101.49256,6.31787],[101.49354,6.31426],[101.49801,6.31428],[101.50147,6.31093],[101.50618,6.29925],[101.50045,6.2962],[101.49567,6.28845],[101.49511,6.27888],[101.49175,6.27809],[101.48665,6.27067],[101.48717,6.25782],[101.49018,6.25482],[101.50283,6.25997],[101.52093,6.26239],[101.52438,6.26134],[101.52308,6.25936],[101.52717,6.25519],[101.53083,6.25536],[101.53314,6.2512],[101.53914,6.24961],[101.54206,6.25175],[101.54481,6.2622],[101.54249,6.27485],[101.53083,6.29367],[101.53327,6.30443],[101.53212,6.31376],[101.52969,6.31544],[101.52102,6.31377],[101.51885,6.31102],[101.51343,6.31416],[101.51361,6.31697],[101.5069,6.32338]]]}},{"type":"Feature","properties":{"pcode":"TH960703","name_th":"ศรีสาคร","name_en":"Si Sakhon","district_th":"ศรีสาคร","district_en":"Si Sakhon","center_lat":6.15648,"center_lon":101.47087},"geometry":{"type":"Polygon","coordinates":[[[101.48139,6.25222],[101.45923,6.25951],[101.46743,6.21466],[101.47076,6.18476],[101.46945,6.17863],[101.46076,6.17523],[101.4181,6.17409],[101.4148,6.17033],[101.41409,6.16084],[101.40972,6.15724],[101.4116,6.15738],[101.41111,6.1515],[101.41556,6.143],[101.42602,6.14258],[101.43006,6.12896],[101.4353,6.12905],[101.43762,6.12281],[101.43615,6.11575],[101.44113,6.1103],[101.43728,6.09695],[101.44654,6.08209],[101.45976,6.07747],[101.46649,6.08037],[101.47059,6.07389],[101.49872,6.07398],[101.50357,6.06899],[101.50462,6.05927],[101.5143,6.05348],[101.52821,6.0665],[101.53116,6.0731],[101.53769,6.07584],[101.5512,6.07515],[101.55534,6.07851],[101.56157,6.07844],[101.56577,6.08443],[101.56042,6.09193],[101.55507,6.09261],[101.55174,6.10746],[101.54132,6.10721],[101.5367,6.11299],[101.53225,6.11119],[101.52959,6.11296],[101.53236,6.13319],[101.53829,6.13425],[101.53818,6.14277],[101.54334,6.15095],[101.53656,6.15006],[101.53438,6.15525],[101.53011,6.1564],[101.52548,6.1626],[101.52561,6.16556],[101.53099,6.16855],[101.5289,6.17307],[101.52434,6.17397],[101.52124,6.17749],[101.5256,6.18622],[101.50891,6.19803],[101.5042,6.20921],[101.5058,6.21531],[101.50025,6.22301],[101.50071,6.22628],[101.49101,6.23241],[101.49483,6.24865],[101.49018,6.25482],[101.48735,6.25242],[101.48139,6.25222]]]}},{"type":"Feature","properties":{"pcode":"TH960704","name_th":"เชิงคีรี","name_en":"Choeng Khiri","district_th":"ศรีสาคร","district_en":"Si Sakhon","center_lat":6.27864,"center_lon":101.57287},"geometry":{"type":"Polygon","coordinates":[[[101.54726,6.32723],[101.5334,6.31934],[101.53327,6.30443],[101.53069,6.29535],[101.54282,6.27406],[101.54488,6.26048],[101.54206,6.25175],[101.55137,6.25026],[101.56008,6.25473],[101.57156,6.25047],[101.57506,6.24329],[101.58698,6.23849],[101.59048,6.23434],[101.5947,6.23348],[101.59926,6.23619],[101.6065,6.23122],[101.61587,6.22972],[101.61963,6.23933],[101.60926,6.25321],[101.61281,6.26419],[101.60618,6.27831],[101.60591,6.28511],[101.59346,6.29307],[101.5964,6.29649],[101.59354,6.3035],[101.60197,6.30968],[101.59979,6.31509],[101.60099,6.31784],[101.58327,6.31294],[101.56803,6.31434],[101.56296,6.31569],[101.54726,6.32723]]]}},{"type":"Feature","properties":{"pcode":"TH960705","name_th":"กาหลง","name_en":"Kalong","district_th":"ศรีสาคร","district_en":"Si Sakhon","center_lat":6.20855,"center_lon":101.41952},"geometry":{"type":"Polygon","coordinates":[[[101.47067,6.18625],[101.45923,6.25951],[101.45757,6.26007],[101.45202,6.25303],[101.4511,6.24596],[101.44379,6.24047],[101.43999,6.2312],[101.43449,6.23454],[101.4283,6.23303],[101.42149,6.24168],[101.41796,6.24213],[101.41064,6.23487],[101.39761,6.2308],[101.39387,6.22237],[101.37187,6.21002],[101.37125,6.20804],[101.38372,6.18893],[101.38675,6.16737],[101.39391,6.15986],[101.40972,6.15724],[101.41409,6.16084],[101.4148,6.17033],[101.4181,6.17409],[101.46076,6.17523],[101.46873,6.17798],[101.47067,6.18625]]]}},{"type":"Feature","properties":{"pcode":"TH960706","name_th":"ศรีบรรพต","name_en":"Si Banphot","district_th":"ศรีสาคร","district_en":"Si Sakhon","center_lat":6.15383,"center_lon":101.575},"geometry":{"type":"Polygon","coordinates":[[[101.62071,6.20955],[101.61216,6.22103],[101.5857,6.21016],[101.58192,6.20252],[101.56656,6.18981],[101.56582,6.18381],[101.56155,6.19087],[101.55543,6.19547],[101.54452,6.19674],[101.52957,6.20385],[101.52196,6.20363],[101.51079,6.19605],[101.52571,6.186],[101.52118,6.17782],[101.52412,6.1741],[101.5289,6.17307],[101.53097,6.16879],[101.52542,6.16525],[101.5271,6.1601],[101.53438,6.15525],[101.53661,6.15002],[101.54341,6.15073],[101.53818,6.14277],[101.53829,6.13425],[101.53236,6.13319],[101.52959,6.11296],[101.53225,6.11119],[101.5367,6.11299],[101.54132,6.10721],[101.55174,6.10746],[101.55507,6.09261],[101.56042,6.09193],[101.56339,6.08707],[101.57602,6.08723],[101.58338,6.09295],[101.59867,6.0932],[101.60319,6.09691],[101.60642,6.10592],[101.60657,6.11499],[101.61328,6.12012],[101.6143,6.1237],[101.61626,6.13687],[101.61473,6.14768],[101.61274,6.14858],[101.61545,6.15474],[101.62,6.15788],[101.6175,6.1649],[101.62657,6.17661],[101.62796,6.18637],[101.63192,6.18829],[101.62968,6.19253],[101.63286,6.2007],[101.62645,6.20532],[101.62478,6.20968],[101.62071,6.20955]]]}},{"type":"Feature","properties":{"pcode":"TH960801","name_th":"แว้ง","name_en":"Waeng","district_th":"แว้ง","district_en":"Waeng","center_lat":5.93347,"center_lon":101.85171},"geometry":{"type":"Polygon","coordinates":[[[101.84401,5.9546],[101.81434,5.95796],[101.80508,5.94546],[101.80784,5.90949],[101.83195,5.91041],[101.84208,5.91372],[101.8509,5.9202],[101.86569,5.9248],[101.87024,5.92314],[101.87547,5.92568],[101.88126,5.92434],[101.88212,5.92657],[101.89016,5.92736],[101.89752,5.93335],[101.91225,5.93522],[101.91659,5.94619],[101.90504,5.94216],[101.87936,5.9469],[101.85137,5.94422],[101.84401,5.9546]]]}},{"type":"Feature","properties":{"pcode":"TH960802","name_th":"กายูคละ","name_en":"Kayu Khla","district_th":"แว้ง","district_en":"Waeng","center_lat":5.97893,"center_lon":101.90743},"geometry":{"type":"Polygon","coordinates":[[[101.94882,5.98349],[101.94817,5.99059],[101.93909,5.99541],[101.93646,6.00421],[101.92456,6.01572],[101.91227,5.99717],[101.90345,5.99165],[101.89817,5.98462],[101.88702,5.98516],[101.8718,5.99448],[101.86817,5.98638],[101.86268,5.98385],[101.86464,5.98039],[101.87473,5.97848],[101.8699,5.96589],[101.87032,5.95629],[101.86584,5.94569],[101.88136,5.94676],[101.90504,5.94216],[101.91815,5.94805],[101.92749,5.94653],[101.93078,5.94953],[101.93707,5.94788],[101.94444,5.95454],[101.94425,5.95814],[101.94134,5.95911],[101.94297,5.96464],[101.93977,5.97255],[101.94673,5.97691],[101.94391,5.97738],[101.94276,5.98148],[101.94616,5.98737],[101.94882,5.98349]]]}},{"type":"Feature","properties":{"pcode":"TH960803","name_th":"ฆอเลาะ","name_en":"Kho Lo","district_th":"แว้ง","district_en":"Waeng","center_lat":5.90501,"center_lon":101.90565},"geometry":{"type":"Polygon","coordinates":[[[101.92974,5.94751],[101.91677,5.94676],[101.91225,5.93522],[101.89752,5.93335],[101.89016,5.92736],[101.8829,5.92556],[101.88105,5.9021],[101.88566,5.88716],[101.88247,5.87771],[101.91108,5.8776],[101.91745,5.86801],[101.93459,5.86479],[101.93744,5.86186],[101.9405,5.87062],[101.94321,5.87206],[101.93921,5.8792],[101.93987,5.88912],[101.93665,5.88861],[101.93802,5.89148],[101.93328,5.89998],[101.93319,5.9068],[101.93033,5.90475],[101.92992,5.91002],[101.92684,5.91064],[101.92593,5.90845],[101.92227,5.90992],[101.9212,5.91485],[101.92448,5.92125],[101.92318,5.92368],[101.92757,5.92314],[101.92902,5.9257],[101.93125,5.93229],[101.92916,5.93514],[101.93199,5.93573],[101.92916,5.9376],[101.93223,5.94525],[101.92974,5.94393],[101.92974,5.94751]]]}},{"type":"Feature","properties":{"pcode":"TH960804","name_th":"โละจูด","name_en":"Lo Chut","district_th":"แว้ง","district_en":"Waeng","center_lat":5.82781,"center_lon":101.84623},"geometry":{"type":"Polygon","coordinates":[[[101.88559,5.88948],[101.84145,5.88843],[101.83948,5.88172],[101.8347,5.88015],[101.83536,5.87762],[101.82441,5.86605],[101.82414,5.86112],[101.81764,5.85583],[101.80962,5.84222],[101.81181,5.83896],[101.81078,5.83299],[101.81871,5.81825],[101.81579,5.8127],[101.81771,5.80289],[101.80401,5.80216],[101.80087,5.79829],[101.80088,5.79255],[101.80844,5.78694],[101.81028,5.779],[101.81662,5.77565],[101.82466,5.76692],[101.83655,5.78958],[101.85566,5.7916],[101.85703,5.79447],[101.85806,5.7924],[101.86715,5.79191],[101.86093,5.80032],[101.86971,5.80505],[101.87386,5.80376],[101.87776,5.81003],[101.88002,5.80975],[101.87691,5.82036],[101.88004,5.83213],[101.8849,5.83506],[101.88429,5.83786],[101.89177,5.83821],[101.89569,5.84581],[101.89701,5.84293],[101.89969,5.84429],[101.90569,5.84116],[101.91714,5.84294],[101.91705,5.84579],[101.92076,5.84566],[101.92978,5.85301],[101.92736,5.85534],[101.93068,5.86113],[101.93586,5.8631],[101.91745,5.86801],[101.91108,5.8776],[101.88247,5.87771],[101.88559,5.88948]]]}},{"type":"Feature","properties":{"pcode":"TH960805","name_th":"แม่ดง","name_en":"Mae Dong","district_th":"แว้ง","district_en":"Waeng","center_lat":5.88424,"center_lon":101.82096},"geometry":{"type":"Polygon","coordinates":[[[101.88277,5.92646],[101.88003,5.92401],[101.86569,5.9248],[101.85348,5.92119],[101.83578,5.91124],[101.80784,5.90949],[101.8089,5.90619],[101.80208,5.89729],[101.80193,5.88294],[101.79542,5.86966],[101.80985,5.84646],[101.80962,5.84222],[101.81764,5.85583],[101.82414,5.86112],[101.82441,5.86605],[101.83536,5.87762],[101.8347,5.88015],[101.83948,5.88172],[101.84145,5.88843],[101.88559,5.88948],[101.88105,5.9021],[101.88277,5.92646]]]}},{"type":"Feature","properties":{"pcode":"TH960806","name_th":"เอราวัณ","name_en":"Erawan","district_th":"แว้ง","district_en":"Waeng","center_lat":5.9687,"center_lon":101.84062},"geometry":{"type":"Polygon","coordinates":[[[101.86268,5.98385],[101.8559,5.9849],[101.84639,5.9904],[101.83052,5.98681],[101.82227,5.99258],[101.81757,5.9864],[101.81662,5.97975],[101.80982,5.9772],[101.81268,5.96065],[101.81434,5.95796],[101.84401,5.9546],[101.85137,5.94422],[101.86584,5.94569],[101.87032,5.95629],[101.8699,5.96589],[101.87473,5.97848],[101.86464,5.98039],[101.86268,5.98385]]]}},{"type":"Feature","properties":{"pcode":"TH960901","name_th":"มาโมง","name_en":"Ma Mong","district_th":"สุคิริน","district_en":"Sukhirin","center_lat":5.87893,"center_lon":101.71125},"geometry":{"type":"Polygon","coordinates":[[[101.81437,5.95768],[101.81243,5.96297],[101.79865,5.95958],[101.79399,5.9609],[101.78757,5.95633],[101.78029,5.95714],[101.7759,5.94975],[101.77742,5.94569],[101.77269,5.93577],[101.77385,5.93405],[101.76664,5.92889],[101.76829,5.92455],[101.76677,5.92203],[101.76123,5.91667],[101.75577,5.91688],[101.74606,5.91281],[101.7466,5.90737],[101.74136,5.90352],[101.73045,5.9072],[101.72795,5.91298],[101.71859,5.91414],[101.71347,5.90866],[101.71421,5.90602],[101.70839,5.90333],[101.70765,5.89943],[101.69685,5.89409],[101.69459,5.89445],[101.69398,5.89832],[101.69824,5.91523],[101.69292,5.91943],[101.68438,5.92136],[101.67074,5.91738],[101.66073,5.92454],[101.65604,5.92344],[101.65094,5.92679],[101.64557,5.92566],[101.64306,5.92766],[101.63675,5.91708],[101.63855,5.91159],[101.62749,5.90665],[101.61769,5.89641],[101.62197,5.89567],[101.62254,5.87759],[101.64163,5.87024],[101.65413,5.87763],[101.65803,5.8753],[101.6625,5.86614],[101.6556,5.85742],[101.66038,5.84969],[101.66767,5.85347],[101.66951,5.86073],[101.67275,5.86178],[101.68091,5.85853],[101.69107,5.85822],[101.68726,5.85261],[101.68967,5.84798],[101.70263,5.84994],[101.70797,5.85447],[101.71181,5.85199],[101.7141,5.85954],[101.72535,5.8585],[101.72727,5.86475],[101.74253,5.86041],[101.74521,5.85095],[101.74121,5.84281],[101.74166,5.83817],[101.74614,5.83833],[101.75487,5.83267],[101.765,5.8297],[101.77104,5.82033],[101.7957,5.79679],[101.80082,5.79464],[101.80401,5.80216],[101.8137,5.80354],[101.81666,5.80149],[101.81579,5.8127],[101.81871,5.81825],[101.81078,5.83299],[101.81051,5.84494],[101.79542,5.86966],[101.80193,5.88294],[101.80208,5.89729],[101.80944,5.90783],[101.80575,5.92027],[101.80697,5.93891],[101.80508,5.94546],[101.81437,5.95768]]]}},{"type":"Feature","properties":{"pcode":"TH960902","name_th":"สุคิริน","name_en":"Sukhirin","district_th":"สุคิริน","district_en":"Sukhirin","center_lat":5.94845,"center_lon":101.70787},"geometry":{"type":"Polygon","coordinates":[[[101.70374,5.99879],[101.70097,6.00284],[101.69902,6.00223],[101.70033,5.99873],[101.69611,5.99153],[101.69173,5.99271],[101.68979,5.99101],[101.68844,5.99623],[101.685,5.99502],[101.67997,5.99753],[101.68084,5.99521],[101.67514,5.99208],[101.67265,5.98156],[101.67432,5.977],[101.66975,5.97727],[101.6659,5.96904],[101.66032,5.96733],[101.66174,5.96358],[101.65943,5.96068],[101.65573,5.96096],[101.65776,5.95927],[101.65614,5.95665],[101.65096,5.95621],[101.6528,5.95163],[101.64855,5.94571],[101.65221,5.94158],[101.64949,5.93716],[101.65115,5.93471],[101.64988,5.92883],[101.6459,5.9279],[101.64618,5.92584],[101.65094,5.92679],[101.65604,5.92344],[101.66073,5.92454],[101.67074,5.91738],[101.68438,5.92136],[101.69292,5.91943],[101.69824,5.91523],[101.69398,5.89832],[101.69501,5.89397],[101.70765,5.89943],[101.70839,5.90333],[101.71421,5.90602],[101.71347,5.90866],[101.71859,5.91414],[101.72795,5.91298],[101.73045,5.9072],[101.74136,5.90352],[101.7466,5.90737],[101.74606,5.91281],[101.75577,5.91688],[101.76123,5.91667],[101.76674,5.92199],[101.76829,5.92455],[101.76665,5.92893],[101.77369,5.93379],[101.77269,5.93577],[101.77635,5.94174],[101.77311,5.94414],[101.76706,5.94332],[101.76394,5.94883],[101.75941,5.94962],[101.75977,5.95897],[101.74991,5.9699],[101.75133,5.9772],[101.74825,5.97677],[101.74691,5.98033],[101.74045,5.98226],[101.73821,5.99005],[101.73519,5.99416],[101.73303,5.99303],[101.7328,5.99618],[101.72908,5.99326],[101.72854,5.98849],[101.72592,5.98964],[101.72457,5.98721],[101.71757,5.99429],[101.71107,5.99086],[101.70725,5.99402],[101.70631,6.0001],[101.70374,5.99879]]]}},{"type":"Feature","properties":{"pcode":"TH960903","name_th":"เกียร์","name_en":"Kia","district_th":"สุคิริน","district_en":"Sukhirin","center_lat":5.98904,"center_lon":101.77116},"geometry":{"type":"Polygon","coordinates":[[[101.8036,6.00746],[101.80057,6.02833],[101.79501,6.03407],[101.78289,6.03429],[101.7771,6.02878],[101.76654,6.01003],[101.75265,6.00444],[101.75229,5.99853],[101.74539,5.99409],[101.73942,5.98586],[101.74086,5.98191],[101.74691,5.98033],[101.74844,5.97669],[101.7513,5.97724],[101.75127,5.96674],[101.75977,5.95897],[101.75941,5.94962],[101.76394,5.94883],[101.767,5.94335],[101.77626,5.94314],[101.77608,5.95036],[101.78083,5.95748],[101.78757,5.95633],[101.79399,5.9609],[101.79865,5.95958],[101.81243,5.96297],[101.80982,5.9772],[101.8046,5.97956],[101.80383,5.98638],[101.79892,5.98838],[101.8036,6.00746]]]}},{"type":"Feature","properties":{"pcode":"TH960904","name_th":"ภูเขาทอง","name_en":"Phu Khao Thong","district_th":"สุคิริน","district_en":"Sukhirin","center_lat":5.7986,"center_lon":101.72953},"geometry":{"type":"Polygon","coordinates":[[[101.74312,5.8601],[101.72727,5.86475],[101.72535,5.8585],[101.7141,5.85954],[101.71181,5.85199],[101.70797,5.85447],[101.70263,5.84994],[101.68967,5.84798],[101.68726,5.85261],[101.69107,5.85822],[101.68091,5.85853],[101.67275,5.86178],[101.66951,5.86073],[101.66767,5.85347],[101.66038,5.84969],[101.65969,5.8423],[101.65676,5.83851],[101.65865,5.83046],[101.65762,5.81256],[101.66254,5.81504],[101.66729,5.80865],[101.66427,5.80065],[101.66994,5.79534],[101.6689,5.7908],[101.67193,5.78712],[101.67874,5.78135],[101.6837,5.78326],[101.68735,5.78138],[101.69005,5.77224],[101.68764,5.76432],[101.69107,5.75857],[101.69021,5.75603],[101.69764,5.7525],[101.70235,5.75299],[101.7069,5.75541],[101.70967,5.76187],[101.71469,5.76395],[101.71762,5.78806],[101.71955,5.78815],[101.72192,5.78017],[101.72648,5.78516],[101.73845,5.78226],[101.74393,5.7938],[101.74826,5.79318],[101.75415,5.79715],[101.76123,5.79527],[101.76635,5.78915],[101.77639,5.78357],[101.7742,5.77404],[101.77539,5.76898],[101.79244,5.75106],[101.79939,5.75023],[101.80373,5.74436],[101.80842,5.74372],[101.81598,5.73336],[101.82386,5.73236],[101.82788,5.73793],[101.82666,5.74705],[101.82363,5.7534],[101.81851,5.75594],[101.82568,5.76691],[101.81028,5.779],[101.80744,5.78837],[101.78792,5.80245],[101.76684,5.825],[101.765,5.8297],[101.75487,5.83267],[101.74614,5.83833],[101.74166,5.83817],[101.74121,5.84281],[101.7444,5.84622],[101.74509,5.85162],[101.74312,5.8601]]]}},{"type":"Feature","properties":{"pcode":"TH960905","name_th":"ร่มไทร","name_en":"Rom Sai","district_th":"สุคิริน","district_en":"Sukhirin","center_lat":6.03784,"center_lon":101.75218},"geometry":{"type":"Polygon","coordinates":[[[101.80253,6.08314],[101.79679,6.08932],[101.79181,6.08625],[101.78515,6.08637],[101.77341,6.07679],[101.75737,6.08039],[101.74925,6.07865],[101.74532,6.08368],[101.73588,6.08613],[101.734,6.07286],[101.71988,6.07191],[101.71876,6.06703],[101.71028,6.06612],[101.71346,6.04575],[101.70084,6.03141],[101.69604,6.02035],[101.69561,6.01067],[101.69017,6.00676],[101.69095,6.00231],[101.67997,5.99753],[101.685,5.99502],[101.68844,5.99623],[101.68979,5.99101],[101.69173,5.99271],[101.69611,5.99153],[101.70033,5.99873],[101.69819,6.00119],[101.70075,6.00294],[101.70346,5.99886],[101.70631,6.0001],[101.70725,5.99402],[101.71123,5.99078],[101.71757,5.99429],[101.72471,5.98723],[101.72592,5.98964],[101.72854,5.98849],[101.72908,5.99326],[101.73259,5.99627],[101.73295,5.99312],[101.73525,5.99413],[101.73942,5.98586],[101.74097,5.98633],[101.74539,5.99409],[101.75288,5.9994],[101.75265,6.00444],[101.76709,6.01066],[101.78024,6.03242],[101.78447,6.03481],[101.79501,6.03407],[101.79948,6.04284],[101.8112,6.0517],[101.80771,6.06423],[101.79846,6.07162],[101.79856,6.0776],[101.80253,6.08314]]]}},{"type":"Feature","properties":{"pcode":"TH961001","name_th":"สุไหงโก-ลก","name_en":"Su-Ngai Kolok","district_th":"สุไหงโก-ลก","district_en":"Su-Ngai Kolok","center_lat":6.01096,"center_lon":101.95062},"geometry":{"type":"Polygon","coordinates":[[[101.97105,6.01858],[101.97836,6.02902],[101.97435,6.03524],[101.95381,6.0312],[101.95493,6.02371],[101.93674,6.02135],[101.91893,6.03233],[101.91405,6.02158],[101.91545,6.01844],[101.9263,6.01532],[101.93646,6.00421],[101.93909,5.99541],[101.95004,5.99091],[101.95136,5.98684],[101.95297,5.99135],[101.95598,5.99206],[101.95422,5.99535],[101.95807,5.99308],[101.95953,5.99706],[101.96316,5.99577],[101.96524,6.00079],[101.97253,6.00558],[101.97105,6.01858]]]}},{"type":"Feature","properties":{"pcode":"TH961002","name_th":"ปาเสมัส","name_en":"Pa Semat","district_th":"สุไหงโก-ลก","district_en":"Su-Ngai Kolok","center_lat":6.05835,"center_lon":101.98129},"geometry":{"type":"Polygon","coordinates":[[[101.99684,6.09376],[101.98863,6.09529],[101.98013,6.09328],[101.97202,6.08411],[101.9651,6.0828],[101.96395,6.07652],[101.95445,6.07435],[101.94629,6.0769],[101.9387,6.07403],[101.9428,6.0645],[101.93942,6.05262],[101.92641,6.03764],[101.91932,6.03544],[101.91893,6.03233],[101.93622,6.02135],[101.95493,6.02371],[101.95381,6.0312],[101.97235,6.03494],[101.98203,6.02862],[101.99109,6.04042],[101.99865,6.03952],[102.00408,6.04402],[102.00345,6.05015],[102.01584,6.05383],[102.01986,6.05222],[102.02188,6.06107],[102.03017,6.06716],[102.01048,6.08284],[102.00596,6.08032],[101.99959,6.08199],[101.99684,6.09376]]]}},{"type":"Feature","properties":{"pcode":"TH961003","name_th":"มูโนะ","name_en":"Mu No","district_th":"สุไหงโก-ลก","district_en":"Su-Ngai Kolok","center_lat":6.09865,"center_lon":102.04142},"geometry":{"type":"Polygon","coordinates":[[[102.06406,6.10489],[102.05177,6.1276],[102.04604,6.13017],[102.0391,6.1185],[102.031,6.11601],[102.01629,6.08529],[102.01048,6.08284],[102.02688,6.06858],[102.03017,6.06716],[102.03198,6.07148],[102.0343,6.06941],[102.04399,6.07427],[102.04371,6.07632],[102.05211,6.07851],[102.05734,6.08525],[102.0586,6.09134],[102.06145,6.09085],[102.05921,6.09719],[102.06132,6.09624],[102.0612,6.10272],[102.06406,6.10489]]]}},{"type":"Feature","properties":{"pcode":"TH961004","name_th":"ปูโยะ","name_en":"Puyo","district_th":"สุไหงโก-ลก","district_en":"Su-Ngai Kolok","center_lat":6.1126,"center_lon":102.00251},"geometry":{"type":"Polygon","coordinates":[[[102.04976,6.14446],[102.02271,6.15106],[101.93645,6.07927],[101.9387,6.07403],[101.94629,6.0769],[101.95445,6.07435],[101.96395,6.07652],[101.9651,6.0828],[101.97202,6.08411],[101.98013,6.09328],[101.98863,6.09529],[101.99684,6.09376],[101.99763,6.086],[102.00072,6.08117],[102.00596,6.08032],[102.0151,6.08419],[102.031,6.11601],[102.0391,6.1185],[102.04644,6.13064],[102.04673,6.13508],[102.05073,6.13859],[102.04976,6.14446]]]}},{"type":"Feature","properties":{"pcode":"TH961101","name_th":"ปะลุรู","name_en":"Paluru","district_th":"สุไหงปาดี","district_en":"Su-Ngai Padi","center_lat":6.08215,"center_lon":101.88864},"geometry":{"type":"Polygon","coordinates":[[[101.91134,6.0949],[101.91139,6.11795],[101.9093,6.1252],[101.90739,6.12858],[101.89397,6.13596],[101.88721,6.10196],[101.88478,6.10277],[101.87256,6.09293],[101.8454,6.08492],[101.88873,6.04334],[101.91808,6.02867],[101.91932,6.03544],[101.92579,6.03716],[101.9368,6.04793],[101.9428,6.0645],[101.9374,6.07698],[101.92875,6.08242],[101.92786,6.08927],[101.92236,6.09297],[101.91134,6.0949]]]}},{"type":"Feature","properties":{"pcode":"TH961102","name_th":"สุไหงปาดี","name_en":"Su-Ngai Padi","district_th":"สุไหงปาดี","district_en":"Su-Ngai Padi","center_lat":6.17808,"center_lon":101.92276},"geometry":{"type":"Polygon","coordinates":[[[101.91713,6.27785],[101.91097,6.27585],[101.91299,6.26469],[101.91761,6.26187],[101.91789,6.25867],[101.9039,6.25525],[101.90364,6.22408],[101.90113,6.21304],[101.88696,6.19586],[101.87473,6.19872],[101.86898,6.19026],[101.85884,6.19132],[101.85711,6.18761],[101.85812,6.17992],[101.86435,6.17126],[101.86207,6.16905],[101.86117,6.1607],[101.8725,6.15019],[101.90739,6.12858],[101.91132,6.11905],[101.91134,6.0949],[101.92496,6.09173],[101.92786,6.08927],[101.93066,6.07991],[101.9374,6.07698],[101.93645,6.07927],[102.02271,6.15106],[101.91799,6.23141],[101.92898,6.23724],[101.92843,6.24268],[101.93032,6.24416],[101.92645,6.25087],[101.93314,6.25513],[101.93134,6.26026],[101.91956,6.26784],[101.91713,6.27785]]]}},{"type":"Feature","properties":{"pcode":"TH961103","name_th":"โต๊ะเด็ง","name_en":"To Deng","district_th":"สุไหงปาดี","district_en":"Su-Ngai Padi","center_lat":6.12317,"center_lon":101.85852},"geometry":{"type":"Polygon","coordinates":[[[101.88766,6.10287],[101.89397,6.13596],[101.87128,6.15109],[101.86241,6.15991],[101.85535,6.15618],[101.8498,6.14804],[101.83013,6.13933],[101.82607,6.12508],[101.82576,6.11008],[101.83303,6.09692],[101.8454,6.08492],[101.87256,6.09293],[101.88478,6.10277],[101.88766,6.10287]]]}},{"type":"Feature","properties":{"pcode":"TH961104","name_th":"สากอ","name_en":"Sako","district_th":"สุไหงปาดี","district_en":"Su-Ngai Padi","center_lat":6.03755,"center_lon":101.81774},"geometry":{"type":"Polygon","coordinates":[[[101.85363,6.02808],[101.84054,6.03435],[101.83626,6.04785],[101.83347,6.07601],[101.8083,6.09839],[101.79932,6.08755],[101.80253,6.08314],[101.79856,6.0776],[101.79846,6.07162],[101.80771,6.06423],[101.8112,6.0517],[101.79948,6.04284],[101.79449,6.03465],[101.80197,6.02517],[101.80137,6.01527],[101.8036,6.00746],[101.79892,5.98838],[101.80383,5.98638],[101.8046,5.97956],[101.80982,5.9772],[101.81503,5.97859],[101.81785,5.98155],[101.81757,5.9864],[101.82384,5.99287],[101.83052,5.98681],[101.84639,5.9904],[101.86196,5.98352],[101.86817,5.98638],[101.8718,5.99448],[101.88702,5.98516],[101.89593,5.9843],[101.88828,6.00417],[101.8842,6.00934],[101.85363,6.02808]]]}},{"type":"Feature","properties":{"pcode":"TH961105","name_th":"ริโก๋","name_en":"Ri Ko","district_th":"สุไหงปาดี","district_en":"Su-Ngai Padi","center_lat":6.08388,"center_lon":101.83614},"geometry":{"type":"Polygon","coordinates":[[[101.87516,6.03311],[101.88787,6.04408],[101.83303,6.09692],[101.82545,6.11143],[101.82607,6.12508],[101.83013,6.13933],[101.8257,6.13777],[101.80505,6.12411],[101.80451,6.11371],[101.8083,6.09839],[101.83347,6.07601],[101.83552,6.05112],[101.84113,6.03338],[101.85363,6.02808],[101.85953,6.03208],[101.87516,6.03311]]]}},{"type":"Feature","properties":{"pcode":"TH961106","name_th":"กาวะ","name_en":"Kawa","district_th":"สุไหงปาดี","district_en":"Su-Ngai Padi","center_lat":6.01468,"center_lon":101.89969},"geometry":{"type":"Polygon","coordinates":[[[101.91808,6.02867],[101.88787,6.04408],[101.87849,6.0343],[101.85953,6.03208],[101.85363,6.02808],[101.8842,6.00934],[101.89662,5.98428],[101.91227,5.99717],[101.92456,6.01572],[101.91545,6.01844],[101.91429,6.02322],[101.91808,6.02867]]]}},{"type":"Feature","properties":{"pcode":"TH961201","name_th":"จะแนะ","name_en":"Chanae","district_th":"จะแนะ","district_en":"Chanae","center_lat":6.07399,"center_lon":101.70919},"geometry":{"type":"Polygon","coordinates":[[[101.70885,6.14572],[101.69536,6.1501],[101.68706,6.1454],[101.68175,6.12636],[101.66713,6.10758],[101.68491,6.08936],[101.68473,6.07906],[101.68223,6.07058],[101.67008,6.06458],[101.6576,6.05033],[101.66175,6.04218],[101.65913,6.03674],[101.6595,6.02892],[101.66499,6.02667],[101.66847,6.02822],[101.67136,6.0211],[101.66871,6.01736],[101.67278,6.01744],[101.67268,6.01004],[101.67866,6.00922],[101.68253,6.00275],[101.67967,5.99897],[101.67997,5.99753],[101.69095,6.00231],[101.69017,6.00676],[101.69561,6.01067],[101.69604,6.02035],[101.70084,6.03141],[101.71346,6.04575],[101.71028,6.06612],[101.71876,6.06703],[101.71988,6.07191],[101.73262,6.07209],[101.73579,6.07598],[101.73441,6.0833],[101.73653,6.08601],[101.72972,6.09659],[101.72757,6.11167],[101.71757,6.13526],[101.70885,6.14572]]]}},{"type":"Feature","properties":{"pcode":"TH961202","name_th":"ดุซงญอ","name_en":"Du Song Yo","district_th":"จะแนะ","district_en":"Chanae","center_lat":6.13773,"center_lon":101.65015},"geometry":{"type":"Polygon","coordinates":[[[101.71349,6.18449],[101.71214,6.1878],[101.6956,6.19035],[101.68558,6.18451],[101.67195,6.18865],[101.6671,6.186],[101.65709,6.18777],[101.64361,6.17702],[101.63477,6.17311],[101.63146,6.17473],[101.62829,6.18089],[101.6175,6.1649],[101.62,6.15788],[101.61545,6.15474],[101.61274,6.14858],[101.61473,6.14768],[101.61626,6.13687],[101.6143,6.1237],[101.61328,6.12012],[101.60657,6.11499],[101.60642,6.10592],[101.60155,6.09408],[101.61632,6.08558],[101.6208,6.08614],[101.62908,6.09239],[101.63912,6.08756],[101.6532,6.08644],[101.66401,6.10416],[101.68175,6.12636],[101.68706,6.1454],[101.69536,6.1501],[101.70372,6.14722],[101.70839,6.17064],[101.71341,6.17207],[101.71109,6.17544],[101.71349,6.18449]]]}},{"type":"Feature","properties":{"pcode":"TH961203","name_th":"ผดุงมาตร","name_en":"Phadung Mat","district_th":"จะแนะ","district_en":"Chanae","center_lat":6.12388,"center_lon":101.78913},"geometry":{"type":"Polygon","coordinates":[[[101.71127,6.17059],[101.70839,6.17064],[101.70372,6.14722],[101.70885,6.14572],[101.71757,6.13526],[101.72757,6.11167],[101.72972,6.09659],[101.73653,6.08601],[101.74532,6.08368],[101.74925,6.07865],[101.75737,6.08039],[101.77341,6.07679],[101.78515,6.08637],[101.79181,6.08625],[101.79679,6.08932],[101.79932,6.08755],[101.8083,6.09839],[101.80451,6.11371],[101.80505,6.12411],[101.80186,6.12972],[101.79354,6.13277],[101.78556,6.12838],[101.78055,6.13291],[101.77273,6.12327],[101.75949,6.12311],[101.7588,6.11708],[101.75024,6.1167],[101.74764,6.11887],[101.74356,6.13234],[101.7331,6.13945],[101.73322,6.14246],[101.72978,6.14578],[101.73095,6.14977],[101.72523,6.15363],[101.72597,6.15725],[101.7229,6.1613],[101.71882,6.16081],[101.71127,6.17059]]]}},{"type":"Feature","properties":{"pcode":"TH961204","name_th":"ช้างเผือก","name_en":"Chang Phueak","district_th":"จะแนะ","district_en":"Chanae","center_lat":5.99858,"center_lon":101.57884},"geometry":{"type":"Polygon","coordinates":[[[101.68554,6.08625],[101.67696,6.0995],[101.66713,6.10758],[101.65253,6.08614],[101.63834,6.08776],[101.62908,6.09239],[101.61713,6.08548],[101.60155,6.09408],[101.58338,6.09295],[101.57602,6.08723],[101.56424,6.08675],[101.56559,6.08225],[101.56157,6.07844],[101.55534,6.07851],[101.5512,6.07515],[101.5328,6.07405],[101.52821,6.0665],[101.5143,6.05348],[101.50462,6.05927],[101.50357,6.06899],[101.49872,6.07398],[101.47059,6.07389],[101.47579,6.0646],[101.47848,6.04744],[101.47782,6.04226],[101.47405,6.0395],[101.47801,6.03519],[101.4776,6.02057],[101.48239,6.01261],[101.47766,6.00732],[101.47802,5.99809],[101.47282,5.98869],[101.47541,5.98881],[101.47891,5.97647],[101.48411,5.97829],[101.48619,5.95634],[101.49096,5.95469],[101.49208,5.94931],[101.49614,5.9512],[101.49716,5.94873],[101.49007,5.9371],[101.49244,5.92321],[101.49004,5.91433],[101.49223,5.90734],[101.49041,5.89948],[101.49352,5.89835],[101.49872,5.90056],[101.50222,5.88968],[101.51351,5.90339],[101.5236,5.89873],[101.52615,5.90915],[101.53961,5.91899],[101.55409,5.92119],[101.55907,5.91932],[101.57241,5.92557],[101.58109,5.93451],[101.58761,5.92989],[101.58938,5.91867],[101.59758,5.91208],[101.60842,5.9151],[101.6148,5.91126],[101.61489,5.90137],[101.61769,5.89641],[101.62749,5.90665],[101.63647,5.90946],[101.63855,5.91161],[101.63675,5.91708],[101.64027,5.92038],[101.64117,5.92618],[101.64341,5.92773],[101.64607,5.92578],[101.64641,5.92859],[101.64989,5.92886],[101.65111,5.93628],[101.64949,5.93716],[101.65222,5.94155],[101.64855,5.94579],[101.65282,5.95176],[101.65097,5.95622],[101.65614,5.95665],[101.65776,5.95927],[101.65573,5.96096],[101.65943,5.96068],[101.66174,5.96358],[101.66032,5.96733],[101.6659,5.96904],[101.66975,5.97727],[101.67432,5.977],[101.67265,5.98156],[101.67511,5.99202],[101.68089,5.99529],[101.67959,5.99867],[101.68253,6.00275],[101.67866,6.00922],[101.67268,6.01004],[101.67278,6.01744],[101.66871,6.01736],[101.67136,6.0211],[101.66847,6.02822],[101.66499,6.02667],[101.6595,6.02892],[101.65913,6.03674],[101.66175,6.04218],[101.65745,6.04872],[101.65845,6.05342],[101.67008,6.06458],[101.68223,6.07058],[101.68554,6.08625]]]}},{"type":"Feature","properties":{"pcode":"TH961301","name_th":"จวบ","name_en":"Chuap","district_th":"เจาะไอร้อง","district_en":"Cho-Airong","center_lat":6.24839,"center_lon":101.81086},"geometry":{"type":"Polygon","coordinates":[[[101.85236,6.29831],[101.84726,6.30306],[101.83019,6.29837],[101.82212,6.2985],[101.79095,6.26028],[101.76061,6.23279],[101.76779,6.22948],[101.77149,6.22021],[101.78277,6.21025],[101.78132,6.20009],[101.78386,6.19375],[101.7976,6.21565],[101.80585,6.21617],[101.80805,6.22077],[101.83578,6.22497],[101.83886,6.23284],[101.84359,6.23556],[101.84725,6.2581],[101.84335,6.27522],[101.85103,6.28558],[101.8669,6.29111],[101.86912,6.29453],[101.86883,6.29824],[101.85236,6.29831]]]}},{"type":"Feature","properties":{"pcode":"TH961302","name_th":"บูกิต","name_en":"Bu Kit","district_th":"เจาะไอร้อง","district_en":"Cho-Airong","center_lat":6.17821,"center_lon":101.82429},"geometry":{"type":"Polygon","coordinates":[[[101.8857,6.19545],[101.85251,6.22606],[101.83886,6.23284],[101.83578,6.22497],[101.80805,6.22077],[101.80585,6.21617],[101.7976,6.21565],[101.78386,6.19375],[101.79082,6.18358],[101.78888,6.17762],[101.79116,6.16631],[101.79734,6.15382],[101.80336,6.14928],[101.80053,6.13561],[101.80505,6.12411],[101.8257,6.13777],[101.8498,6.14804],[101.86141,6.16092],[101.86207,6.16905],[101.86435,6.17126],[101.85812,6.17992],[101.85708,6.19091],[101.86898,6.19026],[101.87473,6.19872],[101.8857,6.19545]]]}},{"type":"Feature","properties":{"pcode":"TH961303","name_th":"มะรือโบออก","name_en":"Marue Bo Ok","district_th":"เจาะไอร้อง","district_en":"Cho-Airong","center_lat":6.24844,"center_lon":101.87486},"geometry":{"type":"Polygon","coordinates":[[[101.91135,6.28862],[101.89154,6.30144],[101.88132,6.29727],[101.86883,6.29824],[101.86709,6.29123],[101.85103,6.28558],[101.84327,6.27491],[101.84724,6.2585],[101.84603,6.24232],[101.84359,6.23556],[101.83886,6.23284],[101.85251,6.22606],[101.86642,6.21078],[101.8857,6.19545],[101.90113,6.21304],[101.90262,6.21779],[101.90424,6.25646],[101.91803,6.25901],[101.91723,6.26232],[101.91299,6.26469],[101.91098,6.27575],[101.91713,6.27785],[101.91684,6.28238],[101.91135,6.28862]]]}}]}