{"type":"FeatureCollection","source":"wam.onwr.go.th/static/geo (สทนช.) · เฉพาะจังหวัดนราธิวาส TH96","features":[{"type":"Feature","properties":{"pcode":"TH9601","name_th":"เมืองนราธิวาส","name_en":"Mueang Narathiwat","center_lat":6.42996,"center_lon":101.81408},"geometry":{"type":"Polygon","coordinates":[[[101.72636,6.57485],[101.80864,6.46083],[101.85497,6.42807],[101.87489,6.42432],[101.9188,6.37285],[101.89958,6.36654],[101.89765,6.36211],[101.90359,6.34525],[101.91559,6.33662],[101.91635,6.28318],[101.89246,6.30134],[101.8556,6.29756],[101.84726,6.30306],[101.82543,6.29791],[101.78864,6.30866],[101.77392,6.304],[101.75799,6.33144],[101.72971,6.34718],[101.72106,6.34739],[101.72453,6.35223],[101.72238,6.36782],[101.74083,6.37355],[101.73982,6.38026],[101.75783,6.37328],[101.76918,6.37984],[101.7678,6.39252],[101.78569,6.40283],[101.77298,6.4366],[101.7403,6.46255],[101.71569,6.49718],[101.72715,6.51276],[101.71864,6.54015],[101.72284,6.54505],[101.70931,6.5689],[101.72636,6.57485]]]}},{"type":"Feature","properties":{"pcode":"TH9602","name_th":"ตากใบ","name_en":"Tak Bai","center_lat":6.23886,"center_lon":102.01018},"geometry":{"type":"Polygon","coordinates":[[[101.9188,6.37285],[101.98119,6.31596],[102.08905,6.24487],[102.09194,6.23605],[102.0804,6.22542],[102.07748,6.19054],[102.07852,6.17096],[102.08249,6.17126],[102.08465,6.1582],[102.08926,6.15863],[102.09327,6.14766],[102.07747,6.12778],[102.07931,6.12278],[102.07052,6.10891],[102.06406,6.10489],[102.05177,6.1276],[102.04604,6.13017],[102.04976,6.14446],[102.02271,6.15106],[101.91799,6.23141],[101.92898,6.23724],[101.92645,6.25087],[101.93304,6.25608],[101.91765,6.27143],[101.91559,6.33662],[101.90359,6.34525],[101.89765,6.36211],[101.89958,6.36654],[101.9188,6.37285]]]}},{"type":"Feature","properties":{"pcode":"TH9603","name_th":"บาเจาะ","name_en":"Bacho","center_lat":6.55329,"center_lon":101.65799},"geometry":{"type":"Polygon","coordinates":[[[101.63119,6.63534],[101.63827,6.6185],[101.64681,6.61786],[101.66885,6.57401],[101.71043,6.56844],[101.72284,6.54505],[101.71864,6.54015],[101.72715,6.51276],[101.7059,6.49218],[101.66959,6.47289],[101.63634,6.47204],[101.60813,6.49146],[101.60488,6.50219],[101.59076,6.51208],[101.59092,6.52288],[101.60898,6.54371],[101.59844,6.55123],[101.59243,6.5656],[101.59669,6.58068],[101.5744,6.59834],[101.57639,6.61835],[101.58628,6.62635],[101.60001,6.62377],[101.605,6.63134],[101.61293,6.63312],[101.61571,6.6293],[101.62626,6.63285],[101.62281,6.62693],[101.62684,6.62452],[101.63119,6.63534]]]}},{"type":"Feature","properties":{"pcode":"TH9604","name_th":"ยี่งอ","name_en":"Yi-Ngo","center_lat":6.42338,"center_lon":101.71273},"geometry":{"type":"Polygon","coordinates":[[[101.73239,6.47293],[101.77298,6.4366],[101.78537,6.40189],[101.7678,6.39252],[101.76918,6.37984],[101.75783,6.37328],[101.73982,6.38026],[101.74083,6.37355],[101.72238,6.36782],[101.72453,6.35223],[101.72106,6.34739],[101.69364,6.35713],[101.65084,6.35474],[101.62629,6.37995],[101.62851,6.39029],[101.62323,6.39864],[101.64295,6.40831],[101.64702,6.42099],[101.64742,6.43159],[101.63931,6.43729],[101.63411,6.45351],[101.63634,6.47204],[101.67123,6.47341],[101.71593,6.49995],[101.73239,6.47293]]]}},{"type":"Feature","properties":{"pcode":"TH9605","name_th":"ระแงะ","name_en":"Ra-Ngae","center_lat":6.24363,"center_lon":101.6939},"geometry":{"type":"Polygon","coordinates":[[[101.62757,6.37119],[101.65558,6.35291],[101.67537,6.35817],[101.69364,6.35713],[101.72971,6.34718],[101.7603,6.32946],[101.77392,6.304],[101.79024,6.30851],[101.82212,6.2985],[101.79095,6.26028],[101.76061,6.23279],[101.78277,6.21025],[101.78162,6.19852],[101.79082,6.18358],[101.79116,6.16631],[101.80336,6.14928],[101.80186,6.12972],[101.79354,6.13277],[101.78556,6.12838],[101.78055,6.13291],[101.77273,6.12327],[101.75949,6.12311],[101.76024,6.11807],[101.75545,6.11571],[101.74864,6.11758],[101.72597,6.15725],[101.71374,6.16583],[101.71214,6.1878],[101.6956,6.19035],[101.68558,6.18451],[101.65709,6.18777],[101.6387,6.17397],[101.63146,6.17473],[101.62719,6.18311],[101.63328,6.19985],[101.6124,6.22025],[101.61932,6.24104],[101.60926,6.25321],[101.61281,6.26419],[101.60552,6.28613],[101.59354,6.29276],[101.5935,6.30247],[101.60166,6.30871],[101.60415,6.33237],[101.61384,6.33929],[101.60554,6.35854],[101.61415,6.36601],[101.62267,6.36466],[101.62757,6.37119]]]}},{"type":"Feature","properties":{"pcode":"TH9606","name_th":"รือเสาะ","name_en":"Rueso","center_lat":6.37165,"center_lon":101.52462},"geometry":{"type":"Polygon","coordinates":[[[101.59442,6.5094],[101.60671,6.49988],[101.60813,6.49146],[101.63567,6.47411],[101.6332,6.4609],[101.63758,6.44089],[101.64742,6.43159],[101.64295,6.40831],[101.62332,6.40034],[101.62851,6.39029],[101.62541,6.38195],[101.63592,6.36896],[101.62757,6.37119],[101.62267,6.36466],[101.61415,6.36601],[101.60633,6.35982],[101.61384,6.33929],[101.60415,6.33237],[101.60099,6.31784],[101.58327,6.31294],[101.56803,6.31434],[101.54627,6.3274],[101.53345,6.3194],[101.53241,6.31384],[101.51889,6.31101],[101.5077,6.32325],[101.49917,6.32234],[101.49248,6.31536],[101.50005,6.31265],[101.50618,6.29925],[101.50045,6.2962],[101.49511,6.27888],[101.48662,6.27058],[101.48912,6.25329],[101.45757,6.26007],[101.43999,6.2312],[101.4283,6.23303],[101.41995,6.24257],[101.39844,6.23143],[101.40337,6.23974],[101.39504,6.24578],[101.40266,6.27298],[101.39499,6.28609],[101.39363,6.30066],[101.4,6.31583],[101.38964,6.32646],[101.38765,6.33658],[101.39737,6.3495],[101.39766,6.3584],[101.41701,6.37269],[101.41941,6.39089],[101.41171,6.3966],[101.42193,6.40688],[101.42367,6.42112],[101.43493,6.42924],[101.4564,6.43178],[101.46785,6.42437],[101.46301,6.4658],[101.48671,6.4629],[101.50762,6.45129],[101.52351,6.46568],[101.53578,6.46843],[101.5427,6.48045],[101.56152,6.48768],[101.56343,6.49487],[101.57371,6.49866],[101.58199,6.51194],[101.59442,6.5094]]]}},{"type":"Feature","properties":{"pcode":"TH9607","name_th":"ศรีสาคร","name_en":"Si Sakhon","center_lat":6.19019,"center_lon":101.50693},"geometry":{"type":"Polygon","coordinates":[[[101.54726,6.32723],[101.56803,6.31434],[101.58327,6.31294],[101.60099,6.31784],[101.60197,6.30968],[101.59354,6.3035],[101.59346,6.29307],[101.60591,6.28511],[101.61281,6.26419],[101.60926,6.25321],[101.61963,6.23933],[101.61216,6.22103],[101.63286,6.2007],[101.63192,6.18829],[101.6175,6.1649],[101.62,6.15788],[101.61274,6.14858],[101.6143,6.1237],[101.60657,6.11499],[101.60155,6.09408],[101.56424,6.08675],[101.56279,6.07917],[101.5512,6.07515],[101.53459,6.07492],[101.51266,6.05362],[101.50462,6.05927],[101.49872,6.07398],[101.47059,6.07389],[101.46649,6.08037],[101.45976,6.07747],[101.44654,6.08209],[101.43728,6.09695],[101.44113,6.1103],[101.43615,6.11575],[101.4353,6.12905],[101.43006,6.12896],[101.42602,6.14258],[101.41556,6.143],[101.4116,6.15738],[101.39865,6.15782],[101.38675,6.16737],[101.38372,6.18893],[101.37117,6.20903],[101.41796,6.24213],[101.4283,6.23303],[101.43999,6.2312],[101.45757,6.26007],[101.48912,6.25329],[101.48662,6.27058],[101.50619,6.29935],[101.49293,6.3186],[101.50552,6.32418],[101.51899,6.31102],[101.53241,6.31384],[101.53345,6.3194],[101.54726,6.32723]]]}},{"type":"Feature","properties":{"pcode":"TH9608","name_th":"แว้ง","name_en":"Waeng","center_lat":5.89139,"center_lon":101.87027},"geometry":{"type":"Polygon","coordinates":[[[101.94872,5.98751],[101.94276,5.98148],[101.94673,5.97691],[101.93977,5.97255],[101.94441,5.95447],[101.93695,5.94782],[101.9295,5.94906],[101.93122,5.93199],[101.92128,5.9181],[101.92219,5.90998],[101.93322,5.90674],[101.94318,5.87301],[101.94095,5.86743],[101.91714,5.84294],[101.90569,5.84116],[101.89569,5.84581],[101.89177,5.83821],[101.88429,5.83786],[101.87691,5.82036],[101.88002,5.80975],[101.86093,5.80032],[101.86715,5.79191],[101.85703,5.79447],[101.83655,5.78958],[101.82466,5.76692],[101.80131,5.79097],[101.80401,5.80216],[101.81771,5.80289],[101.81871,5.81825],[101.81078,5.83299],[101.80985,5.84646],[101.79542,5.86966],[101.80193,5.88294],[101.80208,5.89729],[101.80944,5.90783],[101.80508,5.94546],[101.81437,5.95768],[101.80982,5.9772],[101.81662,5.97975],[101.82384,5.99287],[101.83052,5.98681],[101.84639,5.9904],[101.86196,5.98352],[101.8718,5.99448],[101.88702,5.98516],[101.89817,5.98462],[101.92456,6.01572],[101.94872,5.98751]]]}},{"type":"Feature","properties":{"pcode":"TH9609","name_th":"สุคิริน","name_en":"Sukhirin","center_lat":5.91073,"center_lon":101.7225},"geometry":{"type":"Polygon","coordinates":[[[101.79932,6.08755],[101.80253,6.08314],[101.79846,6.07162],[101.80663,6.06584],[101.81122,6.05332],[101.79449,6.03465],[101.80197,6.02517],[101.80349,6.01105],[101.79892,5.98838],[101.80982,5.9772],[101.81437,5.95768],[101.80508,5.94546],[101.80944,5.90783],[101.80208,5.89729],[101.80193,5.88294],[101.79542,5.86966],[101.80985,5.84646],[101.81078,5.83299],[101.81871,5.81825],[101.81771,5.80289],[101.80401,5.80216],[101.80088,5.79255],[101.82586,5.7666],[101.81851,5.75594],[101.82666,5.74705],[101.82386,5.73236],[101.81598,5.73336],[101.80842,5.74372],[101.79244,5.75106],[101.77539,5.76898],[101.77639,5.78357],[101.75415,5.79715],[101.74393,5.7938],[101.73845,5.78226],[101.72648,5.78516],[101.72192,5.78017],[101.71762,5.78806],[101.71469,5.76395],[101.70235,5.75299],[101.69031,5.7559],[101.68735,5.78138],[101.67874,5.78135],[101.67193,5.78712],[101.66427,5.80065],[101.66729,5.80865],[101.66254,5.81504],[101.65762,5.81256],[101.65676,5.83851],[101.66108,5.84836],[101.6556,5.85742],[101.66212,5.86819],[101.65413,5.87763],[101.64163,5.87024],[101.62279,5.87714],[101.62197,5.89567],[101.61769,5.89641],[101.63855,5.91159],[101.64117,5.92618],[101.64989,5.92886],[101.65097,5.95622],[101.65614,5.95665],[101.66975,5.97727],[101.67432,5.977],[101.67513,5.99206],[101.69469,6.00858],[101.70084,6.03141],[101.71346,6.04575],[101.71028,6.06612],[101.734,6.07286],[101.73588,6.08613],[101.74925,6.07865],[101.77341,6.07679],[101.78515,6.08637],[101.79932,6.08755]]]}},{"type":"Feature","properties":{"pcode":"TH9610","name_th":"สุไหงโก-ลก","name_en":"Su-Ngai Kolok","center_lat":6.06897,"center_lon":101.98611},"geometry":{"type":"Polygon","coordinates":[[[102.02271,6.15106],[102.05064,6.14345],[102.04604,6.13017],[102.05177,6.1276],[102.06406,6.10489],[102.05921,6.09719],[102.06145,6.09085],[102.05211,6.07851],[102.03197,6.07147],[102.02188,6.06107],[102.01986,6.05222],[102.0039,6.05039],[101.9991,6.03971],[101.99109,6.04042],[101.98337,6.02904],[101.97782,6.03082],[101.97111,6.01906],[101.97253,6.00558],[101.96316,5.99577],[101.95422,5.99535],[101.95098,5.98693],[101.93909,5.99541],[101.9263,6.01532],[101.91405,6.02158],[101.91932,6.03544],[101.93942,6.05262],[101.9428,6.0645],[101.93645,6.07927],[102.02271,6.15106]]]}},{"type":"Feature","properties":{"pcode":"TH9611","name_th":"สุไหงปาดี","name_en":"Su-Ngai Padi","center_lat":6.12762,"center_lon":101.90152},"geometry":{"type":"Polygon","coordinates":[[[101.91713,6.27785],[101.91956,6.26784],[101.93314,6.25513],[101.92645,6.25087],[101.92898,6.23724],[101.91799,6.23141],[102.02271,6.15106],[101.93645,6.07927],[101.9428,6.0645],[101.93942,6.05262],[101.91932,6.03544],[101.91429,6.02322],[101.91545,6.01844],[101.92456,6.01572],[101.89817,5.98462],[101.88702,5.98516],[101.8718,5.99448],[101.86196,5.98352],[101.84639,5.9904],[101.83052,5.98681],[101.82384,5.99287],[101.81662,5.97975],[101.80801,5.97764],[101.79892,5.98838],[101.80349,6.01105],[101.80197,6.02517],[101.79449,6.03465],[101.8112,6.0517],[101.80771,6.06423],[101.79846,6.07162],[101.80253,6.08314],[101.79932,6.08755],[101.8083,6.09839],[101.80505,6.12411],[101.8498,6.14804],[101.86141,6.16092],[101.86435,6.17126],[101.85708,6.19091],[101.86898,6.19026],[101.87473,6.19872],[101.88696,6.19586],[101.90113,6.21304],[101.9039,6.25525],[101.91789,6.25867],[101.91097,6.27585],[101.91713,6.27785]]]}},{"type":"Feature","properties":{"pcode":"TH9612","name_th":"จะแนะ","name_en":"Chanae","center_lat":6.04013,"center_lon":101.59223},"geometry":{"type":"Polygon","coordinates":[[[101.71362,6.18475],[101.71374,6.16583],[101.72597,6.15725],[101.74864,6.11758],[101.75545,6.11571],[101.76024,6.11807],[101.75949,6.12311],[101.77273,6.12327],[101.78055,6.13291],[101.78556,6.12838],[101.79998,6.13093],[101.80505,6.12411],[101.8083,6.09839],[101.79932,6.08755],[101.78515,6.08637],[101.77341,6.07679],[101.74925,6.07865],[101.73588,6.08613],[101.734,6.07286],[101.71028,6.06612],[101.71346,6.04575],[101.70084,6.03141],[101.69469,6.00858],[101.67513,5.99206],[101.67432,5.977],[101.66975,5.97727],[101.65614,5.95665],[101.65097,5.95622],[101.64989,5.92886],[101.64117,5.92618],[101.63855,5.91159],[101.61769,5.89641],[101.6148,5.91126],[101.60842,5.9151],[101.59758,5.91208],[101.58109,5.93451],[101.55907,5.91932],[101.53961,5.91899],[101.52615,5.90915],[101.5236,5.89873],[101.51351,5.90339],[101.50222,5.88968],[101.49872,5.90056],[101.4899,5.90037],[101.49007,5.9371],[101.49669,5.95043],[101.49208,5.94931],[101.48619,5.95634],[101.48411,5.97829],[101.47891,5.97647],[101.47282,5.98869],[101.48239,6.01261],[101.47405,6.0395],[101.47848,6.04744],[101.47579,6.0646],[101.47059,6.07389],[101.49872,6.07398],[101.50462,6.05927],[101.51594,6.05397],[101.53459,6.07492],[101.5512,6.07515],[101.56279,6.07917],[101.56424,6.08675],[101.60155,6.09408],[101.60657,6.11499],[101.6143,6.1237],[101.61274,6.14858],[101.62,6.15788],[101.6175,6.1649],[101.62829,6.18089],[101.63477,6.17311],[101.65709,6.18777],[101.68558,6.18451],[101.6956,6.19035],[101.71362,6.18475]]]}},{"type":"Feature","properties":{"pcode":"TH9613","name_th":"เจาะไอร้อง","name_en":"Cho-Airong","center_lat":6.2141,"center_lon":101.83984},"geometry":{"type":"Polygon","coordinates":[[[101.85236,6.29831],[101.8953,6.30035],[101.91684,6.28238],[101.91713,6.27785],[101.91098,6.27575],[101.91803,6.25901],[101.90424,6.25646],[101.90262,6.21779],[101.88811,6.1968],[101.87473,6.19872],[101.86898,6.19026],[101.85708,6.19091],[101.86435,6.17126],[101.85849,6.15731],[101.8498,6.14804],[101.80505,6.12411],[101.80053,6.13561],[101.80336,6.14928],[101.79116,6.16631],[101.79082,6.18358],[101.78162,6.19852],[101.78277,6.21025],[101.76061,6.23279],[101.79095,6.26028],[101.82212,6.2985],[101.84726,6.30306],[101.85236,6.29831]]]}}]}